{
"type": "FeatureCollection",
"name": "1KDH_TBM2023_BATAS",
"crs": { "type": "name", "properties": { "name": "urn:ogc:def:crs:OGC:1.3:CRS84" } },
"xy_coordinate_resolution": 1e-15,
"features": [
{ "type": "Feature", "properties": { "KEBUN": "1KDH", "AFDELING": "AFD04", "LUAS_ADM": 0.0, "LUAS_SHP": 627.44 }, "geometry": { "type": "MultiPolygon", "coordinates": [ [ [ [ 99.44201502415514, 3.141562417621068 ], [ 99.44245067221911, 3.141429876313695 ], [ 99.442745903568536, 3.141331611314326 ], [ 99.443141152288732, 3.14124527250971 ], [ 99.443484017509419, 3.141170923870823 ], [ 99.444003054099142, 3.141000755271611 ], [ 99.444760188222077, 3.140770643011177 ], [ 99.445698254041474, 3.140444708100484 ], [ 99.446826767291086, 3.139999009185386 ], [ 99.447660047340477, 3.139649181746733 ], [ 99.447874319376169, 3.139558131572476 ], [ 99.448326645749546, 3.13930899972061 ], [ 99.448821842905474, 3.139078997596514 ], [ 99.449131361109934, 3.138983119477913 ], [ 99.449302790462582, 3.138939960286275 ], [ 99.44985034705779, 3.138647700639463 ], [ 99.45032673595459, 3.138422867193737 ], [ 99.450510425334471, 3.138322171449179 ], [ 99.450869286698691, 3.13812544898052 ], [ 99.451250199777149, 3.137933793892518 ], [ 99.451393029594058, 3.137833199857432 ], [ 99.45148823978495, 3.137742200640974 ], [ 99.451673945806377, 3.137675098992736 ], [ 99.452135781356546, 3.137392450591957 ], [ 99.452678550829603, 3.137047532382427 ], [ 99.453107062945406, 3.136798409111107 ], [ 99.453449886271258, 3.136630705822631 ], [ 99.453787913731944, 3.136386409246371 ], [ 99.454016434534864, 3.136209181403053 ], [ 99.454170305588761, 3.136028958114324 ], [ 99.454154793053576, 3.135948778037508 ], [ 99.454111898228163, 3.13587220055265 ], [ 99.454004726670803, 3.135831555845627 ], [ 99.453914231096562, 3.135810052229194 ], [ 99.453810653388686, 3.135822065302663 ], [ 99.453578522806353, 3.13590953454169 ], [ 99.453396385299285, 3.135969454503907 ], [ 99.453290437023298, 3.136006601360088 ], [ 99.453238056353612, 3.136019788991005 ], [ 99.453155891540746, 3.135991101272467 ], [ 99.453040368750109, 3.135912161546196 ], [ 99.452990340733606, 3.135860720810151 ], [ 99.4529545828631, 3.135767384659589 ], [ 99.452879519943608, 3.135640555490416 ], [ 99.452758009846193, 3.135482628357035 ], [ 99.452699647491514, 3.135429994336433 ], [ 99.452643676791496, 3.135401295188786 ], [ 99.452576992033798, 3.135377388235963 ], [ 99.45246506864639, 3.135361878220815 ], [ 99.452296005097224, 3.135369132025712 ], [ 99.452117421500134, 3.135384768138379 ], [ 99.451988831675777, 3.135376446620171 ], [ 99.451854278566387, 3.135342993961801 ], [ 99.451754253379136, 3.135309526317527 ], [ 99.451594659824039, 3.135187520309092 ], [ 99.451423148608399, 3.135037992853103 ], [ 99.451324298364753, 3.134969817657962 ], [ 99.451124229632839, 3.134859797048485 ], [ 99.450892007223118, 3.134733035701635 ], [ 99.450684789376297, 3.134611050125375 ], [ 99.450393007660267, 3.134418489252893 ], [ 99.450178644193073, 3.134290523116364 ], [ 99.450021444586014, 3.134197239254189 ], [ 99.449940444581401, 3.134107513139855 ], [ 99.449826059227277, 3.13390290753058 ], [ 99.4497986585571, 3.133863424802996 ], [ 99.449710565494755, 3.133890989391381 ], [ 99.449492720165978, 3.133976056870773 ], [ 99.449340349223206, 3.134037160163972 ], [ 99.449193931265043, 3.134099457759203 ], [ 99.448907040644414, 3.134207294823181 ], [ 99.448654675814225, 3.134310329409727 ], [ 99.448653896571173, 3.134310666284744 ], [ 99.448468975691185, 3.134390595315585 ], [ 99.448313032182199, 3.134452896899339 ], [ 99.448024953092954, 3.13456432401426 ], [ 99.447735680827265, 3.134672161814046 ], [ 99.447530924978508, 3.134739271808011 ], [ 99.447097618659399, 3.134914192439478 ], [ 99.446844061734126, 3.135014833372962 ], [ 99.446660738725853, 3.135087917555188 ], [ 99.446265527100635, 3.135253247358765 ], [ 99.446059584384258, 3.135329931794892 ], [ 99.445832215850118, 3.135419790217905 ], [ 99.445472709910149, 3.13555518410217 ], [ 99.445231056010314, 3.135649835160064 ], [ 99.444979879532383, 3.135749278689411 ], [ 99.444578710878105, 3.135907429142939 ], [ 99.444251343594033, 3.136024856527166 ], [ 99.443952560997857, 3.136168601357805 ], [ 99.443772819664673, 3.136265620410722 ], [ 99.443697834387677, 3.136320705565335 ], [ 99.443687131757983, 3.136350630506958 ], [ 99.443724078552776, 3.136441572808144 ], [ 99.443784832050738, 3.136518143217489 ], [ 99.443863458018868, 3.13662582327687 ], [ 99.443940888272763, 3.136721534960816 ], [ 99.444026647371928, 3.136805275114571 ], [ 99.4441427196993, 3.13691850475433 ], [ 99.444262765401305, 3.136993134640575 ], [ 99.444337086827531, 3.137058209822287 ], [ 99.444409509458737, 3.137138604701858 ], [ 99.444466678867371, 3.137186453094801 ], [ 99.44455241973337, 3.137224714188125 ], [ 99.444609602906141, 3.13730511555455 ], [ 99.444643931262604, 3.137397016975979 ], [ 99.444668725347455, 3.137465942768718 ], [ 99.444655426645738, 3.137552118920907 ], [ 99.444657358623047, 3.137615309776721 ], [ 99.444691660290545, 3.137644018620388 ], [ 99.44474500867058, 3.137666974629937 ], [ 99.444779314389464, 3.137705258568388 ], [ 99.444916592443192, 3.137986690126606 ], [ 99.444897576408707, 3.138067124024156 ], [ 99.444857605950702, 3.13814756777965 ], [ 99.444842402889222, 3.138233744745802 ], [ 99.444859571145514, 3.138289269189587 ], [ 99.444893871222632, 3.138314148525886 ], [ 99.444941501476791, 3.138329447064285 ], [ 99.444956754026066, 3.138358164035312 ], [ 99.444952977584109, 3.138436677124158 ], [ 99.444953011602848, 3.138517102880479 ], [ 99.444981613774658, 3.138582197532931 ], [ 99.445012144629942, 3.138704738338101 ], [ 99.445052206645158, 3.138840678757827 ], [ 99.445101790912545, 3.138968956108547 ], [ 99.445124707356172, 3.139102989557433 ], [ 99.445147609218708, 3.139202554824752 ], [ 99.445174319929563, 3.139300203260844 ], [ 99.445185797616773, 3.13941317800821 ], [ 99.445134399714647, 3.139499370457588 ], [ 99.445056330802274, 3.139581744814766 ], [ 99.444974486167098, 3.139746461751738 ], [ 99.444930718078524, 3.139857544924682 ], [ 99.444869800408497, 3.139955230832378 ], [ 99.444791714342074, 3.139999306595141 ], [ 99.44466981011135, 3.140031912587954 ], [ 99.444561256221789, 3.140104724845508 ], [ 99.444433649084132, 3.140167971036835 ], [ 99.444262230957563, 3.140238895821041 ], [ 99.444178423431495, 3.140267655093144 ], [ 99.444083170750218, 3.140258121556387 ], [ 99.443947899678108, 3.140217966392642 ], [ 99.443816450488043, 3.140204617871673 ], [ 99.443738348993449, 3.140212311082196 ], [ 99.443650765821957, 3.140319582504947 ], [ 99.443523194944021, 3.140468999967362 ], [ 99.443403237694454, 3.140605008670302 ], [ 99.443323258433097, 3.140675894343009 ], [ 99.443233748909449, 3.140733379472255 ], [ 99.443174724913362, 3.14080617140915 ], [ 99.443123333238333, 3.140907682683341 ], [ 99.443047163595537, 3.140978566717577 ], [ 99.44299953959478, 3.140980502201222 ], [ 99.442900443201054, 3.140892458708032 ], [ 99.442814711831574, 3.140875261107174 ], [ 99.442689000880776, 3.140917442708356 ], [ 99.44259756747006, 3.140930885310031 ], [ 99.442464220963146, 3.14093668673603 ], [ 99.442372791480963, 3.14096161962091 ], [ 99.442296639598112, 3.141072716498187 ], [ 99.442271936594238, 3.141220174897279 ], [ 99.442262438580428, 3.141283370632511 ], [ 99.442132942405209, 3.141385969029324 ], [ 99.441965328713692, 3.141445401561851 ], [ 99.441847224094104, 3.141456941141538 ], [ 99.441679574154463, 3.141430204049918 ], [ 99.441584318138311, 3.141413010395838 ], [ 99.441530998469403, 3.141460905835548 ], [ 99.441371022639061, 3.141562463140494 ], [ 99.441247195005033, 3.141554856685049 ], [ 99.441221746346812, 3.141776602063321 ], [ 99.441553057707182, 3.141691163053843 ], [ 99.44201502415514, 3.141562417621068 ] ] ], [ [ [ 99.481543965354319, 3.170008859874165 ], [ 99.481718984561724, 3.169998006169377 ], [ 99.481721616257531, 3.169998144258866 ], [ 99.481568295408366, 3.16957101820305 ], [ 99.481415731095169, 3.169220663993938 ], [ 99.481341804997768, 3.169054769062454 ], [ 99.481025723854927, 3.169332904998983 ], [ 99.481030784075429, 3.169976785525914 ], [ 99.481034371143664, 3.170009097819833 ], [ 99.481189151338754, 3.170003041171659 ], [ 99.481399902356245, 3.170018501307228 ], [ 99.481543965354319, 3.170008859874165 ] ] ], [ [ [ 99.461925486020874, 3.169925383529001 ], [ 99.46222266873707, 3.169919505628019 ], [ 99.462297103209522, 3.169923034854103 ], [ 99.462582727562179, 3.169936578148783 ], [ 99.46279419416166, 3.169955632462575 ], [ 99.462839881146522, 3.169958800925032 ], [ 99.46306852758012, 3.169974657586245 ], [ 99.463260946159252, 3.169999465038868 ], [ 99.463420975357351, 3.170012797657388 ], [ 99.463611475023043, 3.170005052117499 ], [ 99.463824838423946, 3.170004956128831 ], [ 99.464101068582323, 3.170006746986457 ], [ 99.464493505707836, 3.170008484504736 ], [ 99.464929759042789, 3.170010203015269 ], [ 99.465169793387005, 3.170010094717497 ], [ 99.465455547476452, 3.170009965719186 ], [ 99.465735588229279, 3.17001175441738 ], [ 99.466027060847964, 3.170017367354326 ], [ 99.466347105390412, 3.170017222604391 ], [ 99.466764314913874, 3.170034267790547 ], [ 99.467179818457652, 3.170010196168588 ], [ 99.467713011451636, 3.170014688520852 ], [ 99.468337867382061, 3.170027809341435 ], [ 99.46857790592091, 3.170037274405139 ], [ 99.468756972668885, 3.170023788441107 ], [ 99.468979868509237, 3.170040921979921 ], [ 99.469250382578309, 3.170038883669037 ], [ 99.46985618179643, 3.170038607697448 ], [ 99.470031963473375, 3.17004511538326 ], [ 99.469847440813112, 3.169521742053782 ], [ 99.469555595212839, 3.168686023928418 ], [ 99.469368217220236, 3.168222225365754 ], [ 99.469115022425328, 3.167550212645572 ], [ 99.469106439808101, 3.167527955252946 ], [ 99.469606430588584, 3.167353950886477 ], [ 99.470379260108331, 3.167056311440154 ], [ 99.471003520283659, 3.166809005658699 ], [ 99.471606355994311, 3.166578942450443 ], [ 99.472004904593817, 3.166406420025438 ], [ 99.472070611487311, 3.166370485309562 ], [ 99.471986211241031, 3.166143609326203 ], [ 99.471989745670854, 3.166060309043933 ], [ 99.47199328400184, 3.165985626674329 ], [ 99.472024682995439, 3.165910931562851 ], [ 99.472055374854676, 3.165852752483575 ], [ 99.472069078790497, 3.165807918766999 ], [ 99.47211173731263, 3.165690439235446 ], [ 99.472158837204631, 3.165580550591562 ], [ 99.47216095931779, 3.16553459223605 ], [ 99.47206940635931, 3.1652868948537 ], [ 99.472006462491024, 3.165113865128218 ], [ 99.471844904691523, 3.164648124674352 ], [ 99.471728885556644, 3.164329530144349 ], [ 99.471641378647078, 3.164116281692175 ], [ 99.471586608540591, 3.164113912940726 ], [ 99.471475845892869, 3.164040958211594 ], [ 99.47137578450311, 3.163934487684196 ], [ 99.471313831229097, 3.163845952085695 ], [ 99.471174731483075, 3.163772053104074 ], [ 99.471150883224823, 3.163692595690228 ], [ 99.471122288561588, 3.163649523678151 ], [ 99.471003222721521, 3.163644790453582 ], [ 99.470944041116866, 3.163535423462483 ], [ 99.470845206372658, 3.163352778829805 ], [ 99.470789912905786, 3.163245569506777 ], [ 99.470759391002929, 3.163175772504386 ], [ 99.470738424428092, 3.163127827144744 ], [ 99.47069695043254, 3.163040239304275 ], [ 99.47067829151959, 3.162850673544018 ], [ 99.470638178116545, 3.162610851199692 ], [ 99.470585214523055, 3.162391141064243 ], [ 99.470542269547934, 3.162208766745816 ], [ 99.47049070674035, 3.16192586453632 ], [ 99.470453475550556, 3.161740615268439 ], [ 99.470390478218178, 3.161447664615589 ], [ 99.470338919793107, 3.161176251730741 ], [ 99.47029021464553, 3.160893348189499 ], [ 99.470234375254023, 3.160630554248905 ], [ 99.470194255000536, 3.16037493354281 ], [ 99.470148453361077, 3.160193997098603 ], [ 99.470122675394961, 3.160061880381596 ], [ 99.470112655813224, 3.160020236492875 ], [ 99.470061155343075, 3.159875206399242 ], [ 99.47001676397683, 3.159654056571064 ], [ 99.469963794546473, 3.15941854804178 ], [ 99.469949454679977, 3.159302224424799 ], [ 99.469897914635865, 3.159071024195208 ], [ 99.469827767950306, 3.158763715908621 ], [ 99.469796253377083, 3.158581336312948 ], [ 99.469734685494302, 3.158289821518458 ], [ 99.469707478322704, 3.158153397365702 ], [ 99.469644496787694, 3.157896351253826 ], [ 99.469615857862223, 3.157754183068147 ], [ 99.469534263325571, 3.157406666285517 ], [ 99.469474116451138, 3.15709648015285 ], [ 99.469360992578842, 3.156534988894704 ], [ 99.469312300979539, 3.156280808586491 ], [ 99.469253596112523, 3.156000780860664 ], [ 99.469230055680683, 3.155928505405431 ], [ 99.468118509850029, 3.156436798262904 ], [ 99.467701401801676, 3.156632306750688 ], [ 99.467473505208844, 3.15673884365376 ], [ 99.467325229460272, 3.156808159763511 ], [ 99.467248290644619, 3.156658206833712 ], [ 99.467154135938301, 3.156526853614004 ], [ 99.467095950512004, 3.156477706330127 ], [ 99.467236721097137, 3.15641436539629 ], [ 99.467411708221675, 3.15633562863921 ], [ 99.467840239431041, 3.156122881081429 ], [ 99.468310681576725, 3.15591394480275 ], [ 99.468984906807719, 3.155586192130415 ], [ 99.469098632192754, 3.155525007302522 ], [ 99.469057110235497, 3.155397523237879 ], [ 99.46891989020456, 3.15473335598597 ], [ 99.468779711531951, 3.154108086460217 ], [ 99.468672319215713, 3.153581538128841 ], [ 99.468555988794577, 3.15303405061216 ], [ 99.468460533627109, 3.1525763135321 ], [ 99.46839364467985, 3.152275983971337 ], [ 99.468335267043244, 3.152013869396946 ], [ 99.468210023806975, 3.151505281339063 ], [ 99.468087763261124, 3.151008660729686 ], [ 99.467956529014415, 3.150413306232131 ], [ 99.46785212739411, 3.149916677490793 ], [ 99.467759650193756, 3.14945893888751 ], [ 99.467676133545879, 3.149070012947509 ], [ 99.467609841177904, 3.148745899105663 ], [ 99.467580675366548, 3.148603300372772 ], [ 99.467473293511688, 3.148094704030269 ], [ 99.467342123302785, 3.147642967167005 ], [ 99.467154392379044, 3.147173303369728 ], [ 99.467059082576341, 3.147038705443066 ], [ 99.466988131696141, 3.146909471215798 ], [ 99.466845324287561, 3.147070986261341 ], [ 99.466512538825455, 3.147321030320553 ], [ 99.466116858020641, 3.147502165473732 ], [ 99.465798284742888, 3.147585607237691 ], [ 99.465535405558157, 3.147605831545014 ], [ 99.465211088815494, 3.147623210982444 ], [ 99.464168131358818, 3.147681124684767 ], [ 99.463988129156718, 3.147724290272464 ], [ 99.463725465773635, 3.147811551307329 ], [ 99.46364013026664, 3.147447376582741 ], [ 99.463984975416565, 3.147459437426127 ], [ 99.464801724380365, 3.14742316734631 ], [ 99.465487495167281, 3.147364216386238 ], [ 99.465870863165406, 3.147338911667902 ], [ 99.466012528861611, 3.147299353635356 ], [ 99.466164652054459, 3.147214311117021 ], [ 99.466623138745845, 3.146899583481574 ], [ 99.466860970321733, 3.146677852261321 ], [ 99.466802891721343, 3.146572064088696 ], [ 99.466686727239164, 3.146392594610283 ], [ 99.466380906230128, 3.145732574185732 ], [ 99.466299664966144, 3.145755118046388 ], [ 99.46625322626187, 3.145742931222164 ], [ 99.466218912704235, 3.145691244503359 ], [ 99.46618032928022, 3.145673309469227 ], [ 99.46609102533786, 3.145656115505513 ], [ 99.466026723432279, 3.145637474598778 ], [ 99.46596457168468, 3.145633193519434 ], [ 99.46590527746767, 3.145631066088215 ], [ 99.465845267007055, 3.145623194294326 ], [ 99.465761675150219, 3.145599534747279 ], [ 99.465733786007235, 3.14553420173708 ], [ 99.465580222813585, 3.145592434791747 ], [ 99.465436779746383, 3.14565210081859 ], [ 99.465384399547659, 3.145668879758529 ], [ 99.465423736138817, 3.145771787815055 ], [ 99.4654904697002, 3.145905800761759 ], [ 99.465729968741613, 3.146322183636629 ], [ 99.465813388679791, 3.146495683517917 ], [ 99.465699115650906, 3.146554378460837 ], [ 99.465453888042134, 3.146643052388794 ], [ 99.465070575436627, 3.146792825583497 ], [ 99.464864635674232, 3.146876694253754 ], [ 99.464811058880429, 3.146880308891615 ], [ 99.464683693811779, 3.146949780649042 ], [ 99.464330138480946, 3.147081588832035 ], [ 99.46418728853854, 3.147137902642011 ], [ 99.463953966103958, 3.147225374046781 ], [ 99.463748024552444, 3.147305651869135 ], [ 99.463653375268663, 3.147345142469689 ], [ 99.463601475937296, 3.147368228084958 ], [ 99.463532336571973, 3.147248657815318 ], [ 99.463256380072238, 3.146774843784843 ], [ 99.463129124212628, 3.146553729369252 ], [ 99.46312274987315, 3.146542202136712 ], [ 99.462848866874538, 3.146046885613897 ], [ 99.462548598911667, 3.145518506729919 ], [ 99.462301244691531, 3.145104999642394 ], [ 99.462159676612501, 3.144826444574059 ], [ 99.462068167932827, 3.144668506475266 ], [ 99.462089562499457, 3.144586634766398 ], [ 99.461940851332344, 3.144308082823274 ], [ 99.461669173374247, 3.143814159827785 ], [ 99.461456134215979, 3.143456647392753 ], [ 99.461396993168123, 3.143354307895624 ], [ 99.461135854198957, 3.142902426567989 ], [ 99.460919947257239, 3.142520499871834 ], [ 99.460792670449834, 3.142249119471531 ], [ 99.460748345883687, 3.142173021584501 ], [ 99.460458093547274, 3.141673361631491 ], [ 99.460299387388972, 3.141407739732579 ], [ 99.460083495571666, 3.141058845149851 ], [ 99.460007702830737, 3.140898026565308 ], [ 99.459893230600045, 3.140503129575135 ], [ 99.459775943992938, 3.140204456838338 ], [ 99.459739275779484, 3.140122560234543 ], [ 99.459935796139987, 3.140049833332841 ], [ 99.459916962240442, 3.139949356697408 ], [ 99.459869193126522, 3.139619058366783 ], [ 99.459832144537103, 3.139300722331597 ], [ 99.459776010239182, 3.138898618198432 ], [ 99.459721060934996, 3.138483348699074 ], [ 99.459672609411925, 3.138207717429245 ], [ 99.459663296432609, 3.138043113209051 ], [ 99.458974096968959, 3.138258048695211 ], [ 99.458831067158343, 3.138302654322344 ], [ 99.458639970682654, 3.138367531355791 ], [ 99.458327039390213, 3.138473772183868 ], [ 99.458161747049644, 3.138529889568589 ], [ 99.458072165697416, 3.138560302554481 ], [ 99.457628721584456, 3.138695139496117 ], [ 99.45646209063716, 3.139078631558757 ], [ 99.456304352716444, 3.139120589002447 ], [ 99.456264220165664, 3.139032760802795 ], [ 99.456208445326709, 3.138906401187582 ], [ 99.456194120031697, 3.138818801410823 ], [ 99.456092608156638, 3.138653685629115 ], [ 99.456021116891293, 3.138527333787062 ], [ 99.455978193380503, 3.13838517107774 ], [ 99.455952395335672, 3.138198479070721 ], [ 99.455945174684672, 3.138021833489537 ], [ 99.455952252182314, 3.137868159499181 ], [ 99.455943638735903, 3.137773374992336 ], [ 99.455902160360097, 3.137669988744708 ], [ 99.45583494373524, 3.137517783900453 ], [ 99.45576771683605, 3.137339727950296 ], [ 99.455716230392724, 3.137219111095687 ], [ 99.455651868798952, 3.137061160291322 ], [ 99.455598950722631, 3.136934800267563 ], [ 99.455541737605316, 3.136786899078492 ], [ 99.455504545328736, 3.136682074302417 ], [ 99.455398785358184, 3.136603130606359 ], [ 99.455278746832107, 3.136544300457308 ], [ 99.455170162694202, 3.136544347908579 ], [ 99.455005861419636, 3.136548727752052 ], [ 99.454900124800133, 3.136525795170299 ], [ 99.454740115456786, 3.136544535728055 ], [ 99.454288943085018, 3.136803877845014 ], [ 99.453711647440329, 3.137151205613849 ], [ 99.453011659569981, 3.137631777397919 ], [ 99.452198006541522, 3.138121446740886 ], [ 99.451664316185443, 3.138354893012051 ], [ 99.45133696995444, 3.138522589120138 ], [ 99.450706681554578, 3.138850351322692 ], [ 99.450450161971887, 3.1389837464869 ], [ 99.449896679014927, 3.139337045705122 ], [ 99.449670564766606, 3.139576506280553 ], [ 99.449111086881771, 3.139834062238658 ], [ 99.448620351487264, 3.139979372242796 ], [ 99.448343207893075, 3.139989979604197 ], [ 99.448105143804909, 3.140127715097913 ], [ 99.447700442810969, 3.140379221094238 ], [ 99.447337366204508, 3.140522994658847 ], [ 99.447033808394664, 3.140636822169803 ], [ 99.446652829851587, 3.140678874140005 ], [ 99.446384982181712, 3.140774734647381 ], [ 99.445819528903087, 3.140984419729036 ], [ 99.445438585628466, 3.141110247948271 ], [ 99.445004079202391, 3.141272003769947 ], [ 99.444777878128761, 3.141308005334143 ], [ 99.444069573315858, 3.14157160694908 ], [ 99.443776264873094, 3.141687898992374 ], [ 99.443676735287013, 3.14172736094567 ], [ 99.443021990461631, 3.141949050716546 ], [ 99.442474387531618, 3.142140774143066 ], [ 99.441807710042383, 3.142302627522767 ], [ 99.441142802575854, 3.142464479752547 ], [ 99.441177414770635, 3.143232341524071 ], [ 99.441204472921086, 3.144155314293557 ], [ 99.441240750753465, 3.144354448194882 ], [ 99.441273210977613, 3.144532521019379 ], [ 99.441313267223592, 3.144655057910581 ], [ 99.441402897141813, 3.144882893540183 ], [ 99.441475376667938, 3.145095416641002 ], [ 99.441555475583314, 3.145307937397767 ], [ 99.441664114720894, 3.145438104106269 ], [ 99.441810826053228, 3.145501233412797 ], [ 99.441993754976238, 3.145619879983263 ], [ 99.442150035364634, 3.145788324952065 ], [ 99.442336773336578, 3.145903139424863 ], [ 99.44249495426638, 3.146060094119653 ], [ 99.442687445973576, 3.146268736447516 ], [ 99.442864673172608, 3.146416108753845 ], [ 99.44295616605676, 3.14654245310022 ], [ 99.443009547323143, 3.146640090203078 ], [ 99.443158197249929, 3.146783645137853 ], [ 99.443289685306041, 3.146886993579873 ], [ 99.443388777507764, 3.146963547546415 ], [ 99.443543094827589, 3.146992205124768 ], [ 99.443729773933057, 3.146969146567221 ], [ 99.443878381144131, 3.14700929593033 ], [ 99.444126102426281, 3.147179616626541 ], [ 99.444370004366647, 3.147326959192267 ], [ 99.444602484537299, 3.147493456779255 ], [ 99.444842568714904, 3.147623566757276 ], [ 99.445183638446252, 3.147801507043963 ], [ 99.445467557696517, 3.147977555626162 ], [ 99.445539981360781, 3.148056035994574 ], [ 99.445675300630569, 3.148209170402152 ], [ 99.445837266017989, 3.148304845473162 ], [ 99.446124970832074, 3.148421530957805 ], [ 99.44639360092863, 3.148482692801707 ], [ 99.446654615752664, 3.148553431135474 ], [ 99.446873722086082, 3.148628018750968 ], [ 99.446999461515588, 3.148649028177138 ], [ 99.447119999698188, 3.148798386268455 ], [ 99.447146223270749, 3.14883088089599 ], [ 99.447289189361953, 3.149043372992383 ], [ 99.447472151319076, 3.149236699431325 ], [ 99.447677970088392, 3.149420440870745 ], [ 99.447786615301766, 3.149562097050699 ], [ 99.447910491203388, 3.149682682156037 ], [ 99.447999567211966, 3.149740785426087 ], [ 99.448472236434625, 3.149653162326353 ], [ 99.449336551071497, 3.149470872424488 ], [ 99.450077041029786, 3.149288636473091 ], [ 99.450369920865256, 3.149257392143351 ], [ 99.450577094491109, 3.149269270149988 ], [ 99.45074855302795, 3.149288344949263 ], [ 99.451141487194732, 3.149355195266647 ], [ 99.451870202586605, 3.149479347049028 ], [ 99.45219404999763, 3.149474418398917 ], [ 99.452427386150873, 3.149414475987318 ], [ 99.4532368958657, 3.149150824049341 ], [ 99.453496407748773, 3.149050178577754 ], [ 99.454219036585059, 3.148796934212902 ], [ 99.454385676281802, 3.148749179429676 ], [ 99.455153288481739, 3.14851522597809 ], [ 99.455416134793808, 3.148417450051905 ], [ 99.456520875514883, 3.148056963634525 ], [ 99.45739133248226, 3.147771260341605 ], [ 99.457697991158653, 3.147667720805549 ], [ 99.458082722268784, 3.147489465813337 ], [ 99.458141773019548, 3.147479864673563 ], [ 99.458537989913182, 3.147431817954641 ], [ 99.458650415780568, 3.147502618815179 ], [ 99.458966659169917, 3.147536947159038 ], [ 99.459145740914551, 3.147565591394558 ], [ 99.45944557204011, 3.147665718421954 ], [ 99.459463626408279, 3.147566135581792 ], [ 99.459481686165475, 3.147480914452819 ], [ 99.459529276765053, 3.147402382988407 ], [ 99.459598783762047, 3.147345862511101 ], [ 99.45963306556601, 3.147327656131601 ], [ 99.459718746842697, 3.147227085296554 ], [ 99.459756819851322, 3.147166749241675 ], [ 99.459768241801299, 3.147148552981855 ], [ 99.459786342655477, 3.147157161993599 ], [ 99.459901529074941, 3.147006791110829 ], [ 99.459972914865446, 3.146889950589167 ], [ 99.460122475386257, 3.146932012313107 ], [ 99.460232026516294, 3.146965474722116 ], [ 99.460327280648556, 3.146975006667609 ], [ 99.460396837991595, 3.147033380724176 ], [ 99.460293084151218, 3.147187576071453 ], [ 99.460230262425313, 3.147285263564624 ], [ 99.460183642142567, 3.147404965467396 ], [ 99.460117974673736, 3.147529462446359 ], [ 99.460184675466749, 3.147587837778948 ], [ 99.460253289897835, 3.147667275800319 ], [ 99.460315235500317, 3.147742886379914 ], [ 99.460408633111584, 3.147865398531768 ], [ 99.460311543847112, 3.148013846249224 ], [ 99.460244905684505, 3.148096216583605 ], [ 99.460410977767324, 3.14819174171654 ], [ 99.460984461389302, 3.148375317949693 ], [ 99.461163545811132, 3.148409706490139 ], [ 99.461455014236961, 3.148419151100855 ], [ 99.461677893782038, 3.148407562606063 ], [ 99.461784519732618, 3.148286876813479 ], [ 99.46199130271286, 3.148223951519255 ], [ 99.462382946517167, 3.148063404557098 ], [ 99.46287612557326, 3.147856068486742 ], [ 99.462873518158602, 3.148183417125612 ], [ 99.462516288843631, 3.148318565574524 ], [ 99.461956314314364, 3.148529932546456 ], [ 99.461666321646547, 3.148626284593345 ], [ 99.461423451675032, 3.148665169681564 ], [ 99.461200567279647, 3.148663833045811 ], [ 99.461131995238048, 3.148681097571678 ], [ 99.461071989331217, 3.148683996577218 ], [ 99.46098625316742, 3.148659619308246 ], [ 99.460766183960402, 3.148562057414522 ], [ 99.460163140447733, 3.148303813275921 ], [ 99.459497262964163, 3.147997904816701 ], [ 99.459082975211331, 3.147791577999186 ], [ 99.458856263389592, 3.147751465442815 ], [ 99.45855717655003, 3.147743937729198 ], [ 99.458218106630085, 3.147788129757258 ], [ 99.457541922135249, 3.147989492982496 ], [ 99.45641813685576, 3.148359562979532 ], [ 99.455372432577263, 3.148675981120732 ], [ 99.454307007857508, 3.149028048433132 ], [ 99.453489383550647, 3.14932544819589 ], [ 99.452767967487389, 3.149560338443497 ], [ 99.452248910317536, 3.149687427529407 ], [ 99.452077470172568, 3.149709044394748 ], [ 99.451858391587365, 3.149701959432764 ], [ 99.451651014568895, 3.149677713962058 ], [ 99.451268805428128, 3.149633598222717 ], [ 99.45113305613549, 3.149591768962538 ], [ 99.450625825464044, 3.149534542493575 ], [ 99.450192428767821, 3.149510794739769 ], [ 99.450067419031214, 3.149525210711775 ], [ 99.449592405186579, 3.149630736352812 ], [ 99.44876857866106, 3.149829763567434 ], [ 99.448497139930353, 3.149883738145449 ], [ 99.448353078310419, 3.149894571497837 ], [ 99.448318275136373, 3.149948677131693 ], [ 99.448265518954514, 3.150053646897812 ], [ 99.448169791958207, 3.15019767924775 ], [ 99.448131752855929, 3.15034131303698 ], [ 99.448177548921976, 3.15051937876534 ], [ 99.448236665539952, 3.150662971472002 ], [ 99.448299615628642, 3.15086209335068 ], [ 99.448381639784472, 3.15111674052195 ], [ 99.448490305784333, 3.151306268420584 ], [ 99.448560843470347, 3.15142879167368 ], [ 99.448694239548274, 3.151535968835914 ], [ 99.448938142258555, 3.151681395784024 ], [ 99.449096310250525, 3.151803881036417 ], [ 99.449230302519794, 3.151930628713503 ], [ 99.449260206336206, 3.151958916735805 ], [ 99.449336459156129, 3.152081437438452 ], [ 99.449445107360916, 3.152228837152658 ], [ 99.449578488830554, 3.152301546021513 ], [ 99.44972142058198, 3.152431697653328 ], [ 99.44988723449687, 3.152615455854657 ], [ 99.450011134134272, 3.15278774283677 ], [ 99.450072151445596, 3.152921759462456 ], [ 99.450121738849163, 3.153053866752475 ], [ 99.450186579068657, 3.15321851946118 ], [ 99.45025714262664, 3.153400404656357 ], [ 99.450308651781356, 3.153572723034307 ], [ 99.450404002134391, 3.153804385371584 ], [ 99.450489785719171, 3.153940305480816 ], [ 99.450554638507995, 3.154131767306912 ], [ 99.450636630577065, 3.154309817991171 ], [ 99.450766251272043, 3.154497422122557 ], [ 99.450893945336759, 3.154633323941062 ], [ 99.451002575148038, 3.154734766796772 ], [ 99.451113121765275, 3.154864931354779 ], [ 99.451210361159511, 3.155060209400927 ], [ 99.451223558906676, 3.155087617136052 ], [ 99.451294256180034, 3.155234428777077 ], [ 99.451359088570939, 3.155378017797402 ], [ 99.451397265189826, 3.155556087481843 ], [ 99.451467847341817, 3.155780099655638 ], [ 99.451534625605404, 3.156017518058451 ], [ 99.451639505376789, 3.156258750226558 ], [ 99.45173677232107, 3.156517218865368 ], [ 99.451805431131191, 3.156699104704111 ], [ 99.451856942424868, 3.156875253329952 ], [ 99.451860812610988, 3.157013124211588 ], [ 99.451927593489444, 3.157258202446881 ], [ 99.451988651932822, 3.15748604910074 ], [ 99.452011591573111, 3.157667954876257 ], [ 99.452040223824653, 3.157800070244039 ], [ 99.452025043595995, 3.157939864639721 ], [ 99.451983192711154, 3.158077755488697 ], [ 99.451979411142389, 3.158142863931702 ], [ 99.452049952262271, 3.158271131494936 ], [ 99.45217384887998, 3.158433843871437 ], [ 99.452293309463059, 3.158557152307628 ], [ 99.452311070892137, 3.158575486839211 ], [ 99.452396841920518, 3.158680768044032 ], [ 99.452467387278546, 3.15881861064913 ], [ 99.452509336771328, 3.158908592136249 ], [ 99.45262753170978, 3.15910386077408 ], [ 99.452770491380036, 3.159295288153791 ], [ 99.452850555783698, 3.159419721069009 ], [ 99.452892521038294, 3.159548001056643 ], [ 99.452947821757363, 3.159674360906533 ], [ 99.453064099179343, 3.159838990758613 ], [ 99.453157515662525, 3.160001716317708 ], [ 99.45325284406691, 3.160181675092602 ], [ 99.453317695394489, 3.160367391905723 ], [ 99.453392069022186, 3.160547360750508 ], [ 99.453439754501701, 3.160685212368075 ], [ 99.453565561886705, 3.16086132823482 ], [ 99.453716143116566, 3.161056581564329 ], [ 99.453944875540088, 3.161355205837484 ], [ 99.454162175443528, 3.161650004668357 ], [ 99.454286077828783, 3.161824206049373 ], [ 99.454484315040588, 3.162088375430479 ], [ 99.454585345605423, 3.162237692870455 ], [ 99.454667244912244, 3.162199359219706 ], [ 99.454859622077024, 3.162130337397103 ], [ 99.454986270403055, 3.162081139683092 ], [ 99.455029481291646, 3.162130076248476 ], [ 99.455213686195535, 3.162029752584689 ], [ 99.455520822334819, 3.161919510133508 ], [ 99.455742240043364, 3.161826061798287 ], [ 99.455839862355802, 3.161802081943356 ], [ 99.455935081441112, 3.16173023135408 ], [ 99.456013639703087, 3.161675143596345 ], [ 99.456158881525454, 3.161639174754917 ], [ 99.456339831297385, 3.161576860466165 ], [ 99.456513640976638, 3.161524124382903 ], [ 99.456718396792894, 3.161447437802921 ], [ 99.456930298920341, 3.16137553556714 ], [ 99.457085058086932, 3.161322806913924 ], [ 99.457208864660245, 3.161277274146339 ], [ 99.457320755751496, 3.161212596479159 ], [ 99.457408844946343, 3.161171866128115 ], [ 99.457567043740482, 3.161088018691262 ], [ 99.457551306440607, 3.161039195830995 ], [ 99.457727009717104, 3.160960128165093 ], [ 99.457856998057352, 3.16089544334016 ], [ 99.458016987897082, 3.160822127276355 ], [ 99.458156982372188, 3.16076749073173 ], [ 99.458319833825357, 3.160705662728409 ], [ 99.458436970280331, 3.160653908626319 ], [ 99.45848982130623, 3.160625161764137 ], [ 99.458511237380705, 3.160589248438448 ], [ 99.458572660593248, 3.160557625428503 ], [ 99.458634096774077, 3.16055759817538 ], [ 99.458685530831261, 3.160554703014073 ], [ 99.458711925866169, 3.160541646797713 ], [ 99.458769809760142, 3.160513016202337 ], [ 99.458984320529567, 3.160418372531314 ], [ 99.459218826507609, 3.160306965365242 ], [ 99.459398574567459, 3.160220715251244 ], [ 99.459714030308362, 3.160078153922641 ], [ 99.459939013095706, 3.159972734366726 ], [ 99.460183042916412, 3.159857732120953 ], [ 99.46045087867077, 3.15972835751706 ], [ 99.460680611977935, 3.159595409174504 ], [ 99.460763941215788, 3.15956186109732 ], [ 99.460898343519801, 3.159245842737179 ], [ 99.460998337474621, 3.159202713049576 ], [ 99.461328070164015, 3.159037405947455 ], [ 99.461545906555898, 3.158926005767345 ], [ 99.461729224672197, 3.1588361630633 ], [ 99.461883972556848, 3.158759497910206 ], [ 99.462151811478805, 3.158638500218322 ], [ 99.462372035971953, 3.158542657410444 ], [ 99.462549399882164, 3.158451620357845 ], [ 99.462598208114031, 3.158433646177014 ], [ 99.462692362124443, 3.158645439883567 ], [ 99.462804259420764, 3.158596320295783 ], [ 99.463201846064692, 3.158405849552818 ], [ 99.46342683425982, 3.158312397271667 ], [ 99.463723237842473, 3.158168647435027 ], [ 99.463949413605761, 3.158070407891215 ], [ 99.464182727533029, 3.157956605612015 ], [ 99.464568408553603, 3.157768533522866 ], [ 99.464766010651786, 3.157673896398922 ], [ 99.464901702786818, 3.157584074593448 ], [ 99.465077882781259, 3.157482968672713 ], [ 99.464869936681694, 3.157386546961607 ], [ 99.464722719114334, 3.157261666743231 ], [ 99.464564008393324, 3.15699460946404 ], [ 99.464269455160249, 3.156476282860244 ], [ 99.464170736974054, 3.156174731396128 ], [ 99.464124936628863, 3.155993793582815 ], [ 99.464199197293041, 3.155916207100218 ], [ 99.464547899622104, 3.156109934113978 ], [ 99.464656700321186, 3.156127174513086 ], [ 99.466194664520444, 3.15690873105132 ], [ 99.46650611294865, 3.156769884322031 ], [ 99.466640094718088, 3.15671015345264 ], [ 99.466679421372177, 3.1567347871785 ], [ 99.46678804588359, 3.15682090837458 ], [ 99.466910942072545, 3.156873512193022 ], [ 99.466934781667888, 3.156934778610557 ], [ 99.466927185768029, 3.156987441287324 ], [ 99.46687302636461, 3.15703379496761 ], [ 99.466777208790788, 3.157106839931804 ], [ 99.466501514206456, 3.157230475733981 ], [ 99.466295103401947, 3.157329664014136 ], [ 99.466061551556834, 3.157441790462721 ], [ 99.465968700076658, 3.157482045934485 ], [ 99.465741574890274, 3.157587706436557 ], [ 99.465618728643236, 3.157647362542382 ], [ 99.465637314140949, 3.157674641858339 ], [ 99.465625176167848, 3.157687573301132 ], [ 99.465466613807465, 3.157754425859948 ], [ 99.465261623732545, 3.157837098500728 ], [ 99.465036632342176, 3.157922651530558 ], [ 99.46494021211339, 3.157968652301014 ], [ 99.464915188705106, 3.15792270610629 ], [ 99.464897331609961, 3.157928458809842 ], [ 99.464812336035649, 3.157964401698353 ], [ 99.46466091523348, 3.158025507163444 ], [ 99.464415216087247, 3.158130458345455 ], [ 99.46422237142373, 3.158215278475233 ], [ 99.463955247792072, 3.158338908933778 ], [ 99.463781690953468, 3.158421567217531 ], [ 99.463536711354038, 3.158540161285381 ], [ 99.463435292533205, 3.158592627165353 ], [ 99.463261738465661, 3.158681747460307 ], [ 99.462963901960507, 3.158817599124753 ], [ 99.462813197087215, 3.158882294684295 ], [ 99.462801059115904, 3.158897379225608 ], [ 99.462867546731943, 3.159010807385763 ], [ 99.462892582813041, 3.159085477039869 ], [ 99.462867589349997, 3.159107031232844 ], [ 99.462725456066366, 3.159171722950213 ], [ 99.462511898880393, 3.159265887408562 ], [ 99.462373336392531, 3.159327705145969 ], [ 99.462191207703256, 3.159414675095326 ], [ 99.461999795276242, 3.159507393846515 ], [ 99.461888386900995, 3.159587869161129 ], [ 99.461758399034977, 3.159652554434 ], [ 99.461686249120277, 3.159658331330559 ], [ 99.461568392302183, 3.159694288659102 ], [ 99.461417687879546, 3.159762573793387 ], [ 99.46118199668804, 3.159885472205771 ], [ 99.46096129589273, 3.159981794505236 ], [ 99.460898355482158, 3.159811635199786 ], [ 99.460780491956754, 3.159832512428844 ], [ 99.4606497865704, 3.159892889836359 ], [ 99.460504799238564, 3.159964045549667 ], [ 99.460283389751226, 3.160074011428401 ], [ 99.460166971562089, 3.160133664111318 ], [ 99.459978417875618, 3.160229971913804 ], [ 99.459764149709414, 3.160335625554782 ], [ 99.459562740771901, 3.160441274346131 ], [ 99.459306334458219, 3.160569925371442 ], [ 99.459179205052493, 3.160637482337026 ], [ 99.459129217296393, 3.160681307982492 ], [ 99.458914233019797, 3.160781935417809 ], [ 99.458820073247509, 3.160826432930077 ], [ 99.458702819604838, 3.160881843822691 ], [ 99.45852568907479, 3.160963066305635 ], [ 99.458187857218192, 3.161124785597679 ], [ 99.458038584354554, 3.161199532662335 ], [ 99.457854310085509, 3.161282193929832 ], [ 99.457692177205672, 3.161353356897886 ], [ 99.457651429938949, 3.161290900809249 ], [ 99.457630718042665, 3.161303117662501 ], [ 99.457378592924513, 3.161420277910997 ], [ 99.457153608397448, 3.161525217513035 ], [ 99.456972906108732, 3.161607877966043 ], [ 99.456800775723949, 3.161689097978732 ], [ 99.456635070917727, 3.161763133817264 ], [ 99.456512225420752, 3.161827097951567 ], [ 99.456380809537421, 3.161896092232724 ], [ 99.456165819974302, 3.161985948110368 ], [ 99.45596654629496, 3.16207579701376 ], [ 99.455729410168715, 3.162165662583269 ], [ 99.455507988631709, 3.162250494801617 ], [ 99.455292282100302, 3.162335323554645 ], [ 99.45523930016347, 3.162367697178077 ], [ 99.455248280375869, 3.162377868102757 ], [ 99.455278864435371, 3.162448026658785 ], [ 99.455261746847867, 3.162511225760242 ], [ 99.45527320868004, 3.162583986445174 ], [ 99.455393293277737, 3.162739040976276 ], [ 99.45551146584539, 3.162880690855142 ], [ 99.455642955539957, 3.162978293449072 ], [ 99.455759189405484, 3.16304334802109 ], [ 99.455877329501774, 3.163108402641299 ], [ 99.455970697394363, 3.163158149318444 ], [ 99.456046917628512, 3.163202157965416 ], [ 99.456132635038415, 3.163182970861901 ], [ 99.456231670287153, 3.163123565970178 ], [ 99.456311657564896, 3.163069913266405 ], [ 99.456405000348084, 3.163062212146427 ], [ 99.456460253076884, 3.163079421791475 ], [ 99.456523148852185, 3.163146415938026 ], [ 99.456551772691924, 3.163257467519214 ], [ 99.456599446113685, 3.163368509773025 ], [ 99.456698547544576, 3.163460381839363 ], [ 99.456795721881662, 3.163502465960913 ], [ 99.456892891257269, 3.163531146410754 ], [ 99.457009146273634, 3.163642159201576 ], [ 99.45711778345887, 3.163758920032776 ], [ 99.457241658836452, 3.163871844613478 ], [ 99.457416963921176, 3.163969426632827 ], [ 99.457569397897544, 3.164042125719186 ], [ 99.457727551988114, 3.164126310709745 ], [ 99.45781330638998, 3.164191379426222 ], [ 99.457855275022467, 3.164325403767823 ], [ 99.457857234964649, 3.164449871674147 ], [ 99.457902972232247, 3.164488148989521 ], [ 99.457975357676034, 3.164474712320084 ], [ 99.45803248302883, 3.164417240133861 ], [ 99.458059081534287, 3.164254461966254 ], [ 99.458100953570749, 3.164166357924449 ], [ 99.458160001877275, 3.164149097673885 ], [ 99.458270522685666, 3.164216070555892 ], [ 99.458384865022538, 3.164309849953421 ], [ 99.458480164522669, 3.164418956647416 ], [ 99.458541155125431, 3.164487865776322 ], [ 99.458602140685798, 3.16454528553409 ], [ 99.45873930801082, 3.164556713969444 ], [ 99.458954565653656, 3.164533639574041 ], [ 99.45910885280702, 3.164489528707778 ], [ 99.459194578654731, 3.164489490587104 ], [ 99.459257469564477, 3.164546909453511 ], [ 99.459274650984199, 3.164629242579361 ], [ 99.459253753398357, 3.164759464404161 ], [ 99.459227126420089, 3.164857135871324 ], [ 99.459227177843786, 3.16497394471887 ], [ 99.459269168617666, 3.165157756821529 ], [ 99.459307364905627, 3.165374123513546 ], [ 99.459324602013368, 3.16558283964842 ], [ 99.459315160646995, 3.165774333603355 ], [ 99.459320937280907, 3.165914118633601 ], [ 99.459309629455021, 3.166191783671182 ], [ 99.459283043796248, 3.16638328525556 ], [ 99.45931931544294, 3.166555610520132 ], [ 99.459361306336206, 3.166739421697081 ], [ 99.459424292824522, 3.167011308966599 ], [ 99.459471957478328, 3.167101288381704 ], [ 99.459475836495088, 3.16725639310232 ], [ 99.459456190452897, 3.167453100711683 ], [ 99.459453076655123, 3.167484276278095 ], [ 99.459472176102707, 3.167597246239723 ], [ 99.459552247132237, 3.167731253479228 ], [ 99.459594215342122, 3.167863363396575 ], [ 99.459666645739759, 3.167951416561694 ], [ 99.459773364857853, 3.168037539239223 ], [ 99.459904839535156, 3.168098756937231 ], [ 99.459963931961795, 3.168181071339773 ], [ 99.460053518578235, 3.16829592503523 ], [ 99.460097391361927, 3.168426118872654 ], [ 99.460124118978896, 3.168554405160696 ], [ 99.460070820227656, 3.168650173349778 ], [ 99.459990850552927, 3.168744039144245 ], [ 99.45996041379118, 3.168843627522977 ], [ 99.459977592848404, 3.168920215930211 ], [ 99.46005004619272, 3.169059971184327 ], [ 99.460135879823923, 3.169303124743703 ], [ 99.460185473682841, 3.169446720574254 ], [ 99.460254108828806, 3.169569243460484 ], [ 99.460294147469355, 3.169641991258696 ], [ 99.460404642721457, 3.169651516084309 ], [ 99.460517022189265, 3.169611253112328 ], [ 99.460671311656711, 3.16957097140198 ], [ 99.460838958630035, 3.169580471545455 ], [ 99.461079056590478, 3.169723981228933 ], [ 99.461260106921841, 3.169886666510618 ], [ 99.461372573690198, 3.17004555296695 ], [ 99.461462157291535, 3.170150831419018 ], [ 99.461505981983223, 3.170171876231643 ], [ 99.461535071226692, 3.170187899461378 ], [ 99.461603642919471, 3.170166804319075 ], [ 99.461668387874639, 3.17010741421835 ], [ 99.461771209314321, 3.169994388827196 ], [ 99.461856909257406, 3.169934988425071 ], [ 99.461925486020874, 3.169925383529001 ] ], [ [ 99.465330006777435, 3.160066546173533 ], [ 99.465387108429681, 3.159957371567975 ], [ 99.465400382329861, 3.159821407581034 ], [ 99.465358357604416, 3.15956291501992 ], [ 99.465220132655389, 3.159313083654224 ], [ 99.465166732045233, 3.159178107704715 ], [ 99.465099070740564, 3.159103456393984 ], [ 99.46509304193178, 3.159096076965527 ], [ 99.465089515324678, 3.159034524535446 ], [ 99.465036088762517, 3.158841143738995 ], [ 99.465036043605721, 3.158739654719684 ], [ 99.465081743317867, 3.158693676736353 ], [ 99.465180792031845, 3.158666823091198 ], [ 99.465310304094658, 3.158601659077815 ], [ 99.465455040540505, 3.158502019219631 ], [ 99.465607404957822, 3.158419609949744 ], [ 99.465740747999163, 3.158402315889674 ], [ 99.465942649905969, 3.158337118310488 ], [ 99.465978883683007, 3.158425187369747 ], [ 99.465870346991451, 3.158534385154276 ], [ 99.465723711256103, 3.158647430473303 ], [ 99.465611376743809, 3.158783438148975 ], [ 99.465546672748431, 3.158932829837609 ], [ 99.465550537055464, 3.15905538155719 ], [ 99.465600134387486, 3.159204720890822 ], [ 99.465668788893595, 3.159371285676334 ], [ 99.465703116583015, 3.159455526115377 ], [ 99.465686028690342, 3.159583831944446 ], [ 99.465701381968998, 3.159838506103145 ], [ 99.465716696898269, 3.160005094897006 ], [ 99.46570339141158, 3.160072122747919 ], [ 99.465465380714974, 3.160332655678384 ], [ 99.465353015306889, 3.160399728121036 ], [ 99.465156870631446, 3.160560667411898 ], [ 99.465078822595615, 3.16069091586328 ], [ 99.465048415452031, 3.160855610052175 ], [ 99.464970369137419, 3.160987773693831 ], [ 99.464789354154775, 3.160901684002762 ], [ 99.464810274034647, 3.160823164276019 ], [ 99.464869234213495, 3.16060866942292 ], [ 99.46497200844702, 3.160392239670466 ], [ 99.46507483042943, 3.160281129317496 ], [ 99.465330006777435, 3.160066546173533 ] ], [ [ 99.452909517244848, 3.154264438802922 ], [ 99.452848781622222, 3.154233348134674 ], [ 99.452791614999924, 3.154195075492126 ], [ 99.452718974825956, 3.154167579771359 ], [ 99.452653583814623, 3.154149684008957 ], [ 99.452640383738185, 3.154146071979 ], [ 99.452567760647042, 3.154158071662787 ], [ 99.452499924675848, 3.15422631926747 ], [ 99.452451121043836, 3.154255064941024 ], [ 99.452225246596626, 3.153675307179444 ], [ 99.451694822191428, 3.152296212011221 ], [ 99.451295216332795, 3.151223018967662 ], [ 99.451300590157572, 3.151143468482635 ], [ 99.451884128189391, 3.150909022732886 ], [ 99.452185312236509, 3.150805965579186 ], [ 99.452619816347095, 3.150635829078735 ], [ 99.453154317382527, 3.150428546172332 ], [ 99.453473350447823, 3.150303938748062 ], [ 99.454018564246923, 3.150089470350753 ], [ 99.454619951147237, 3.149850199829939 ], [ 99.454626867331072, 3.149847448394815 ], [ 99.454843527615552, 3.14976956037757 ], [ 99.455230415485346, 3.149622182796249 ], [ 99.45556254250755, 3.149490387740396 ], [ 99.456055380600844, 3.149308255485144 ], [ 99.456871869246967, 3.149001139905847 ], [ 99.457260409164789, 3.148848300301719 ], [ 99.457449271477586, 3.148774006559839 ], [ 99.457611510158614, 3.148710187095781 ], [ 99.45769698716316, 3.148707929325238 ], [ 99.457831506064196, 3.148658801313695 ], [ 99.45791365422086, 3.148646796216332 ], [ 99.458031518401668, 3.148629989617973 ], [ 99.458236265923745, 3.148540138276128 ], [ 99.45837196776111, 3.148475450173666 ], [ 99.458529100494388, 3.14840716283688 ], [ 99.458708850915343, 3.148330487287886 ], [ 99.458815987274292, 3.148287354784781 ], [ 99.458940979308593, 3.148233442411802 ], [ 99.458995768030178, 3.148280093980373 ], [ 99.459063649144667, 3.148314771809767 ], [ 99.459114895138995, 3.14842844596833 ], [ 99.459197076267372, 3.148491840888204 ], [ 99.459251872876351, 3.148556444804192 ], [ 99.459341275406274, 3.148798160595665 ], [ 99.459391346498236, 3.148947739987444 ], [ 99.459478285216733, 3.148999164826029 ], [ 99.459559242292258, 3.148988357009578 ], [ 99.459585451500772, 3.149024250135751 ], [ 99.459590222146957, 3.149042200389967 ], [ 99.459640234896042, 3.149056539948836 ], [ 99.45971048449745, 3.149063689230449 ], [ 99.459779543930296, 3.149072036823993 ], [ 99.459820009607526, 3.149037311042948 ], [ 99.459872395346423, 3.149032500287197 ], [ 99.459911707601066, 3.149082749308078 ], [ 99.459943891821453, 3.149167708430084 ], [ 99.459971310120267, 3.149245489259401 ], [ 99.460009443622766, 3.149320871566893 ], [ 99.460034485269787, 3.149409424504569 ], [ 99.459969029032479, 3.149474081683783 ], [ 99.459895226747577, 3.149511215115584 ], [ 99.459838072806804, 3.149501666277115 ], [ 99.459764254766512, 3.149502895878755 ], [ 99.4596511512257, 3.149514913940281 ], [ 99.459568988350171, 3.149493407319085 ], [ 99.459530868885111, 3.149447945296383 ], [ 99.45947130051097, 3.149362998286445 ], [ 99.459349825405809, 3.149291243510624 ], [ 99.459241464206642, 3.149256583629995 ], [ 99.459129545230638, 3.149256633163315 ], [ 99.459048588649566, 3.149268637834541 ], [ 99.458983125537472, 3.149317735458791 ], [ 99.458964111480284, 3.1494003244049 ], [ 99.45898794438574, 3.149445792773078 ], [ 99.459037961491688, 3.149472100301487 ], [ 99.459120123312275, 3.149491213197316 ], [ 99.459210617524533, 3.149506730838745 ], [ 99.459373738042444, 3.149518627470289 ], [ 99.459441622023732, 3.149561682548299 ], [ 99.45945237672025, 3.149651438717982 ], [ 99.459442865700822, 3.149682560126051 ], [ 99.459336917988793, 3.149723298413851 ], [ 99.459259540952019, 3.149754449869502 ], [ 99.459169051960075, 3.149750899272552 ], [ 99.459052367905002, 3.149743769605209 ], [ 99.458939265367633, 3.149758182268112 ], [ 99.458913089692615, 3.149798885220756 ], [ 99.458917878149549, 3.149857526843486 ], [ 99.458900054254272, 3.149938917473599 ], [ 99.458827463019375, 3.150022727005646 ], [ 99.458760833256179, 3.150126879131697 ], [ 99.45875371041457, 3.150173558079685 ], [ 99.458723971018287, 3.150233410955367 ], [ 99.458718044256955, 3.15029445108873 ], [ 99.458758534640623, 3.150315976203708 ], [ 99.458785903647296, 3.150281256244575 ], [ 99.45884898019257, 3.150220190830395 ], [ 99.458941820745821, 3.150155522493989 ], [ 99.45899656764766, 3.150106428702699 ], [ 99.459070388360544, 3.150111183572478 ], [ 99.459147755467626, 3.150057292223415 ], [ 99.45930726045404, 3.1499698544409 ], [ 99.459433448584079, 3.149927910303042 ], [ 99.459577495328176, 3.149885958239226 ], [ 99.45969059103686, 3.14985598781651 ], [ 99.459806073377479, 3.149837984267254 ], [ 99.459837040148102, 3.149861906425844 ], [ 99.459898955839066, 3.149869060285467 ], [ 99.460012062562114, 3.149864222593966 ], [ 99.460157328180387, 3.149884504298722 ], [ 99.460295448205883, 3.149903592268476 ], [ 99.460428807405066, 3.149925075196907 ], [ 99.460521676212593, 3.149925033970685 ], [ 99.460593123928973, 3.149948939035576 ], [ 99.460659799399011, 3.149951302291664 ], [ 99.460774090344444, 3.149929709415591 ], [ 99.460803852760193, 3.149922514886997 ], [ 99.460872922247518, 3.149953601390934 ], [ 99.460903903252017, 3.150009837580885 ], [ 99.460928920258112, 3.150042140538015 ], [ 99.461074174470454, 3.150038486231901 ], [ 99.461203964083609, 3.150063561295993 ], [ 99.461270653779096, 3.150098239481833 ], [ 99.461323053249941, 3.15012454582725 ], [ 99.461394566853713, 3.150298051410087 ], [ 99.461430334545668, 3.150410535399836 ], [ 99.461272036222454, 3.150533877680478 ], [ 99.461193480100462, 3.150591359454233 ], [ 99.461272142117124, 3.150774436939165 ], [ 99.461343642071881, 3.15091682533749 ], [ 99.461330576407107, 3.150987443714953 ], [ 99.46128060991856, 3.151078422830502 ], [ 99.461206830243597, 3.151167019672842 ], [ 99.46112737617652, 3.15121291206155 ], [ 99.460538579074353, 3.151444529821383 ], [ 99.459854515222219, 3.151699005442721 ], [ 99.459218127584478, 3.151963961006562 ], [ 99.458799804228846, 3.152114766461295 ], [ 99.458512912418399, 3.152227393346759 ], [ 99.457889863930319, 3.15248646280526 ], [ 99.457674856690829, 3.152558084090164 ], [ 99.457595087533122, 3.152565299717702 ], [ 99.457573643687695, 3.152535388868111 ], [ 99.457555766332746, 3.152494705382497 ], [ 99.457510518834468, 3.15248634806576 ], [ 99.457466481901022, 3.152523468226854 ], [ 99.457410522152031, 3.152522296039832 ], [ 99.457366479986618, 3.15254744915809 ], [ 99.457322442522226, 3.152583372429273 ], [ 99.457262903879965, 3.152566643212146 ], [ 99.457228381693568, 3.152581020159098 ], [ 99.457153391516684, 3.152625335274611 ], [ 99.457092687771933, 3.152667250314512 ], [ 99.457047447579697, 3.152675648462256 ], [ 99.457026001133826, 3.152639753174813 ], [ 99.456975978301315, 3.152602674506483 ], [ 99.456902160532294, 3.15260510082184 ], [ 99.456883144716514, 3.152684098197874 ], [ 99.456840288006219, 3.152697281922236 ], [ 99.456799799118642, 3.152679348300571 ], [ 99.45675814459014, 3.152718861156529 ], [ 99.45670935421731, 3.152777526414416 ], [ 99.456664123409482, 3.152807466666741 ], [ 99.45662006764114, 3.152801501652736 ], [ 99.456560532122381, 3.152791953705461 ], [ 99.45650933932238, 3.152800353548767 ], [ 99.456448632929025, 3.152836285035677 ], [ 99.456384348174723, 3.152857856377187 ], [ 99.456324830906865, 3.152890195773792 ], [ 99.456289132975186, 3.152936887303279 ], [ 99.456228417178721, 3.152951275753385 ], [ 99.456147454138204, 3.152951311393833 ], [ 99.456095081051615, 3.152983648538987 ], [ 99.45604628280789, 3.153024361401211 ], [ 99.456005825189095, 3.153078236329759 ], [ 99.455983220523166, 3.153118937663167 ], [ 99.455927260211155, 3.153116568515344 ], [ 99.455891075060904, 3.153100577111966 ], [ 99.455862949750582, 3.153077102306719 ], [ 99.455857596466984, 3.153072771267293 ], [ 99.455820072165409, 3.153042413302651 ], [ 99.455791497845397, 3.153046016527119 ], [ 99.455766516840171, 3.153096293984908 ], [ 99.455721279736125, 3.153111872485002 ], [ 99.45565222054627, 3.153104721541254 ], [ 99.455608166327139, 3.153102347140674 ], [ 99.455587946167739, 3.153150228731604 ], [ 99.455599877259544, 3.153207670365106 ], [ 99.455599898611936, 3.153256739941837 ], [ 99.455559433148622, 3.153292661580216 ], [ 99.455501101839616, 3.153314230256016 ], [ 99.455483232872652, 3.153292695078659 ], [ 99.45546773853772, 3.153255601156383 ], [ 99.45542963833006, 3.153254421017331 ], [ 99.455380841606583, 3.153298724509133 ], [ 99.455290379854716, 3.153358604913205 ], [ 99.455247328232574, 3.153370740145395 ], [ 99.455184410614763, 3.153349077291499 ], [ 99.455109388544244, 3.15332038589939 ], [ 99.455054618536906, 3.153319213973042 ], [ 99.455007012351842, 3.153361123156169 ], [ 99.454966549602176, 3.153405422971959 ], [ 99.454918940809193, 3.153441347725758 ], [ 99.454848703514685, 3.153465315366165 ], [ 99.454776089355434, 3.153497661339373 ], [ 99.454685608832975, 3.153514455636974 ], [ 99.454579659321084, 3.153550406882496 ], [ 99.454523716784095, 3.153591122819453 ], [ 99.454453474652254, 3.153601925601514 ], [ 99.454376081563922, 3.15359717200271 ], [ 99.454296302781685, 3.153580451493013 ], [ 99.454208189100058, 3.153563734630641 ], [ 99.454114117247357, 3.153536249306008 ], [ 99.454070060927506, 3.153529087300624 ], [ 99.454031981466017, 3.153575779813262 ], [ 99.453976046549244, 3.153632054329067 ], [ 99.453937966698987, 3.15367994372507 ], [ 99.453885594013798, 3.153713477658759 ], [ 99.453823379400035, 3.153719055096561 ], [ 99.453768904794472, 3.15369557639232 ], [ 99.453742714954785, 3.153706358928833 ], [ 99.45374868661338, 3.153748245502478 ], [ 99.453733229157081, 3.153796124080129 ], [ 99.453661801481957, 3.153818895282956 ], [ 99.453604673237891, 3.153869186782028 ], [ 99.453535636425428, 3.153915891930324 ], [ 99.453501102065616, 3.153900348438708 ], [ 99.453451092746164, 3.153894386804975 ], [ 99.453405864372726, 3.153930310457767 ], [ 99.453339212439587, 3.153982999884315 ], [ 99.453271372526274, 3.154044067122781 ], [ 99.453232112154652, 3.154113499149902 ], [ 99.453191654340785, 3.154167373089973 ], [ 99.453157125811529, 3.154167388195041 ], [ 99.453099969545789, 3.154153051471963 ], [ 99.453044001392342, 3.154132730701711 ], [ 99.453008291485872, 3.154154288452949 ], [ 99.45296307965863, 3.15422851061861 ], [ 99.452909517244848, 3.154264438802922 ] ], [ [ 99.462374694216322, 3.150282999009301 ], [ 99.462026639816742, 3.149391529537136 ], [ 99.462040917750699, 3.14936998016434 ], [ 99.462681357440246, 3.149111184027388 ], [ 99.463157548947507, 3.148924573365728 ], [ 99.463187383122133, 3.148912881606932 ], [ 99.46320743978815, 3.148891093522807 ], [ 99.463381724359536, 3.148839313567177 ], [ 99.46351664717514, 3.150322145297736 ], [ 99.463332641457697, 3.150384997836574 ], [ 99.46307569871631, 3.150511129206257 ], [ 99.462920935315253, 3.150551890551546 ], [ 99.462676754511762, 3.150676179649535 ], [ 99.462637617504257, 3.150664516858298 ], [ 99.462530519887366, 3.150658873585942 ], [ 99.462374694216322, 3.150282999009301 ] ], [ [ 99.457485971430273, 3.14698293720265 ], [ 99.457371684642581, 3.147013626187355 ], [ 99.457276424299309, 3.146987817054519 ], [ 99.457134497841935, 3.146977347324431 ], [ 99.457036402899334, 3.147006114851683 ], [ 99.456920219207092, 3.147054037781896 ], [ 99.456849764032285, 3.147120132693412 ], [ 99.456758353314811, 3.147188152018524 ], [ 99.456649793590287, 3.147244689505095 ], [ 99.456498367450507, 3.147291670749176 ], [ 99.456352661607781, 3.147353012083124 ], [ 99.456165047846483, 3.147417243254204 ], [ 99.455993625513671, 3.147478595843103 ], [ 99.455855535700849, 3.147530358686003 ], [ 99.455566978541057, 3.147642506787457 ], [ 99.455330795332685, 3.147724951254357 ], [ 99.455009860029421, 3.147856262684066 ], [ 99.454772729085349, 3.14794923968409 ], [ 99.454379410516964, 3.148094944375382 ], [ 99.454172753787262, 3.14817450242985 ], [ 99.454005842377654, 3.148236838846803 ], [ 99.453962286025885, 3.148253105872479 ], [ 99.453696577449222, 3.148342264756094 ], [ 99.453632534145044, 3.14836607848228 ], [ 99.453626818369386, 3.148368386094036 ], [ 99.453626774283293, 3.148368417776965 ], [ 99.453621745472532, 3.148342217855871 ], [ 99.453601060215234, 3.148288694527964 ], [ 99.453566509605494, 3.148222640264363 ], [ 99.453540281454295, 3.148142465803959 ], [ 99.453546212803204, 3.148093393607124 ], [ 99.453564044880508, 3.148029954484526 ], [ 99.453554500560401, 3.147984479707817 ], [ 99.453619723436276, 3.14792875394678 ], [ 99.453659224590524, 3.14786714636811 ], [ 99.453690156495924, 3.147810882834083 ], [ 99.453679402461205, 3.147723520298086 ], [ 99.453658647838893, 3.147665651842759 ], [ 99.453684113985346, 3.147605033780529 ], [ 99.453660256881776, 3.147500921473286 ], [ 99.453642373054322, 3.147444679273455 ], [ 99.453691056048314, 3.147406205666702 ], [ 99.453673270788769, 3.147309425815062 ], [ 99.453642278337327, 3.147225661873471 ], [ 99.453636231198445, 3.147009041749655 ], [ 99.453667124271306, 3.14686301722625 ], [ 99.453644458406899, 3.146760101279818 ], [ 99.453640849588794, 3.146675129389635 ], [ 99.453621750253376, 3.146561439910616 ], [ 99.453625309912013, 3.146532714904517 ], [ 99.453661005076569, 3.146477646180422 ], [ 99.453662144541283, 3.146359161221126 ], [ 99.45400617597727, 3.146227361576282 ], [ 99.45445811886178, 3.14606343482039 ], [ 99.454983905126809, 3.145855845758457 ], [ 99.455245410080735, 3.145764849285798 ], [ 99.455306160284579, 3.145830646841264 ], [ 99.455387199646111, 3.146007739521765 ], [ 99.455463350331527, 3.145985904356616 ], [ 99.45558240327685, 3.145876004645175 ], [ 99.455775211820693, 3.145710759804741 ], [ 99.456063285763392, 3.145581377869001 ], [ 99.456246607144323, 3.145504701218776 ], [ 99.456327549835919, 3.145459186731177 ], [ 99.456327522779347, 3.145396953224239 ], [ 99.456565613162368, 3.145320252464591 ], [ 99.456767988761598, 3.145253141537683 ], [ 99.457070353974515, 3.145133327251873 ], [ 99.457095585509293, 3.145113209743909 ], [ 99.457060619712834, 3.145038381347128 ], [ 99.457500408665069, 3.144865779301068 ], [ 99.457543195782222, 3.144970352668351 ], [ 99.457535651080974, 3.14514365465967 ], [ 99.457452859798366, 3.145316989789262 ], [ 99.457386194405814, 3.145337125549746 ], [ 99.457375703757862, 3.145307448680974 ], [ 99.457189017186948, 3.1453132755474 ], [ 99.45715949981907, 3.145335310141527 ], [ 99.45720528242289, 3.145479865230459 ], [ 99.457233913919808, 3.145610065241863 ], [ 99.457380757759026, 3.145975747191076 ], [ 99.457496144748561, 3.146286867528114 ], [ 99.457615165135451, 3.146501098247679 ], [ 99.457677268128805, 3.146638927081309 ], [ 99.457697313503701, 3.146727205489814 ], [ 99.457686863760003, 3.146791358798651 ], [ 99.457613551593468, 3.146858413063014 ], [ 99.457526893284808, 3.14690249355177 ], [ 99.457485971430273, 3.14698293720265 ] ] ] ] } },
{ "type": "Feature", "properties": { "KEBUN": "1KDH", "AFDELING": "AFD07", "LUAS_ADM": null, "LUAS_SHP": 33.31 }, "geometry": { "type": "MultiPolygon", "coordinates": [ [ [ [ 99.481057491994235, 3.077944758817138 ], [ 99.473827736791122, 3.077894519188929 ], [ 99.473827589085559, 3.078505395085368 ], [ 99.473827319436225, 3.079294335336217 ], [ 99.473826970564204, 3.080313057422972 ], [ 99.473826534631485, 3.081588379496613 ], [ 99.47422751390333, 3.08158821197593 ], [ 99.474802785562247, 3.08158986969684 ], [ 99.475166611157135, 3.081580131629057 ], [ 99.476082858400147, 3.08159120994489 ], [ 99.47700291994262, 3.081613456661003 ], [ 99.477940103253971, 3.081586544841563 ], [ 99.478751578912821, 3.081590008200894 ], [ 99.479020174875586, 3.081612547139164 ], [ 99.479271598266948, 3.08156870973887 ], [ 99.479418244210336, 3.081505451998849 ], [ 99.479563015010811, 3.081507300815094 ], [ 99.479896375929812, 3.081526299198071 ], [ 99.480300229073507, 3.081573988919547 ], [ 99.480843142727295, 3.081633104770612 ], [ 99.48107170141283, 3.081663638746773 ], [ 99.481071791446396, 3.081611618187847 ], [ 99.481063819213404, 3.077944297280247 ], [ 99.481057491994235, 3.077944758817138 ] ] ], [ [ [ 99.478163541093267, 3.099404584380685 ], [ 99.478138901443884, 3.099402826016207 ], [ 99.47804748705893, 3.099448824879713 ], [ 99.477990359038387, 3.09949289390094 ], [ 99.477952674646716, 3.099449132037911 ], [ 99.477975039401116, 3.099312900714396 ], [ 99.47798444673171, 3.099052470858287 ], [ 99.477931078474541, 3.098981643753302 ], [ 99.477830105538814, 3.098952966143891 ], [ 99.477677739070074, 3.099010481947048 ], [ 99.477617971573267, 3.099088848310049 ], [ 99.477553219470067, 3.09914564499258 ], [ 99.477567351834281, 3.099226915350074 ], [ 99.477599870684543, 3.099337364853359 ], [ 99.477639842368433, 3.09945858473227 ], [ 99.477639901615831, 3.099590712247585 ], [ 99.477634260773854, 3.099755396111151 ], [ 99.477634334625321, 3.09992007738469 ], [ 99.477628694647095, 3.100086675536002 ], [ 99.477666802601149, 3.100109636967443 ], [ 99.477784918008226, 3.100134477321896 ], [ 99.477882059183713, 3.100115284058149 ], [ 99.478059197485607, 3.100074990993522 ], [ 99.478183000888933, 3.100042381065405 ], [ 99.478268700622095, 3.099996384776949 ], [ 99.478253432509931, 3.099931285989777 ], [ 99.478175132550561, 3.09948898061599 ], [ 99.478163541093267, 3.099404584380685 ] ] ] ] } }
]
}
