{
"type": "FeatureCollection",
"name": "1KDH_TBM2023_BLOK",
"crs": { "type": "name", "properties": { "name": "urn:ogc:def:crs:OGC:1.3:CRS84" } },
"xy_coordinate_resolution": 1e-15,
"features": [
{ "type": "Feature", "properties": { "KEBUN": "1KDH", "AFDELING": "AFD04", "BLOK": "05A" }, "geometry": { "type": "MultiPolygon", "coordinates": [ [ [ [ 99.481543965354319, 3.170008859874165 ], [ 99.481718984561724, 3.169998006169359 ], [ 99.481721616257531, 3.169998144258866 ], [ 99.481568295408366, 3.169571018203033 ], [ 99.481415731095169, 3.169220663993904 ], [ 99.481341804997754, 3.169054769062438 ], [ 99.481025723854913, 3.169332904998983 ], [ 99.481030784075443, 3.169976785525897 ], [ 99.481034371143664, 3.170009097819833 ], [ 99.481189151338754, 3.170003041171642 ], [ 99.48139990235623, 3.17001850130721 ], [ 99.481543965354319, 3.170008859874165 ] ] ] ] } },
{ "type": "Feature", "properties": { "KEBUN": "1KDH", "AFDELING": "AFD04", "BLOK": "13" }, "geometry": { "type": "MultiPolygon", "coordinates": [ [ [ [ 99.469106439808101, 3.167527955252946 ], [ 99.468830080893596, 3.167622202200238 ], [ 99.468011057973214, 3.167931350924929 ], [ 99.467489649877493, 3.16813743859893 ], [ 99.467177750927689, 3.168247686838697 ], [ 99.46644587702805, 3.168545305622356 ], [ 99.465967325664195, 3.168740841017519 ], [ 99.465064495933063, 3.169085930216183 ], [ 99.464741654306081, 3.169221075737872 ], [ 99.464618795884448, 3.169258472428248 ], [ 99.46406452450762, 3.169465530517834 ], [ 99.463311696783521, 3.169770338062459 ], [ 99.462839881146508, 3.169958800925032 ], [ 99.463068527580106, 3.169974657586212 ], [ 99.463260946159238, 3.169999465038851 ], [ 99.463420975357337, 3.170012797657388 ], [ 99.463611475023043, 3.170005052117482 ], [ 99.463824838423946, 3.170004956128814 ], [ 99.464101068582323, 3.170006746986457 ], [ 99.464493505707836, 3.170008484504736 ], [ 99.464929759042789, 3.170010203015269 ], [ 99.465169793386991, 3.170010094717497 ], [ 99.465455547476452, 3.170009965719186 ], [ 99.465735588229265, 3.17001175441738 ], [ 99.466027060847935, 3.170017367354326 ], [ 99.466347105390412, 3.170017222604391 ], [ 99.46676431491386, 3.17003426779053 ], [ 99.467179818457652, 3.170010196168588 ], [ 99.467713011451622, 3.170014688520868 ], [ 99.468337867382061, 3.170027809341402 ], [ 99.46857790592091, 3.170037274405123 ], [ 99.468756972668885, 3.170023788441107 ], [ 99.468979868509237, 3.170040921979921 ], [ 99.469250382578309, 3.170038883669037 ], [ 99.46985618179643, 3.170038607697448 ], [ 99.470031963473375, 3.170045115383243 ], [ 99.469847440813083, 3.169521742053798 ], [ 99.469555595212839, 3.168686023928384 ], [ 99.469368217220236, 3.168222225365771 ], [ 99.469115022425314, 3.167550212645539 ], [ 99.469106439808101, 3.167527955252946 ] ] ] ] } },
{ "type": "Feature", "properties": { "KEBUN": "1KDH", "AFDELING": "AFD04", "BLOK": "22" }, "geometry": { "type": "MultiPolygon", "coordinates": [ [ [ [ 99.462297103209522, 3.169923034854103 ], [ 99.461368080080291, 3.167511502662272 ], [ 99.461075804018535, 3.166746318666541 ], [ 99.461047530633394, 3.166755484795408 ], [ 99.460859428716788, 3.166801047713753 ], [ 99.460708258646946, 3.166893269879933 ], [ 99.460491108929361, 3.167006300040164 ], [ 99.459828552298674, 3.167298183894958 ], [ 99.459456190452897, 3.167453100711649 ], [ 99.459453076655123, 3.167484276278061 ], [ 99.459472176102693, 3.167597246239723 ], [ 99.459552247132223, 3.167731253479228 ], [ 99.459594215342108, 3.167863363396575 ], [ 99.45966664573973, 3.167951416561694 ], [ 99.459773364857853, 3.168037539239223 ], [ 99.459904839535156, 3.168098756937214 ], [ 99.459963931961795, 3.168181071339756 ], [ 99.460053518578221, 3.168295925035213 ], [ 99.460097391361927, 3.168426118872637 ], [ 99.460124118978896, 3.168554405160696 ], [ 99.460070820227642, 3.168650173349778 ], [ 99.459990850552913, 3.168744039144245 ], [ 99.45996041379118, 3.168843627522977 ], [ 99.459977592848389, 3.168920215930228 ], [ 99.460050046192706, 3.169059971184311 ], [ 99.460135879823909, 3.169303124743703 ], [ 99.460185473682841, 3.169446720574254 ], [ 99.460254108828806, 3.169569243460467 ], [ 99.460294147469355, 3.169641991258696 ], [ 99.460404642721443, 3.169651516084326 ], [ 99.460517022189265, 3.169611253112312 ], [ 99.460671311656697, 3.169570971401946 ], [ 99.460838958630021, 3.169580471545455 ], [ 99.461079056590464, 3.1697239812289 ], [ 99.461260106921841, 3.169886666510602 ], [ 99.461372573690198, 3.170045552966916 ], [ 99.461462157291535, 3.170150831419001 ], [ 99.461505981983208, 3.170171876231626 ], [ 99.461535071226677, 3.170187899461361 ], [ 99.461603642919457, 3.17016680431904 ], [ 99.461668387874624, 3.17010741421835 ], [ 99.461771209314307, 3.169994388827212 ], [ 99.461856909257406, 3.169934988425071 ], [ 99.461925486020874, 3.169925383529001 ], [ 99.462222668737056, 3.169919505628019 ], [ 99.462297103209522, 3.169923034854103 ] ] ] ] } },
{ "type": "Feature", "properties": { "KEBUN": "1KDH", "AFDELING": "AFD04", "BLOK": "23" }, "geometry": { "type": "MultiPolygon", "coordinates": [ [ [ [ 99.469106439808101, 3.167527955252946 ], [ 99.46842549381202, 3.165795547360469 ], [ 99.467795618629978, 3.164135318389062 ], [ 99.467467276375189, 3.164270691347832 ], [ 99.466548970650308, 3.164611320051444 ], [ 99.46605137186269, 3.164807821886604 ], [ 99.465846619585022, 3.164891690701969 ], [ 99.465056178071208, 3.165212791942488 ], [ 99.46456333950772, 3.165406897230368 ], [ 99.464141929211507, 3.165577034328788 ], [ 99.463765741839694, 3.165699277416713 ], [ 99.462537215723387, 3.166183340840984 ], [ 99.461188005770339, 3.166709943133764 ], [ 99.461075804018535, 3.166746318666541 ], [ 99.461368080080291, 3.167511502662272 ], [ 99.462297103209522, 3.169923034854103 ], [ 99.462582727562165, 3.16993657814875 ], [ 99.462794194161646, 3.169955632462541 ], [ 99.462839881146508, 3.169958800925032 ], [ 99.463311696783521, 3.169770338062459 ], [ 99.46406452450762, 3.169465530517834 ], [ 99.464618795884448, 3.169258472428248 ], [ 99.464741654306081, 3.169221075737872 ], [ 99.465064495933063, 3.169085930216183 ], [ 99.465967325664195, 3.168740841017519 ], [ 99.46644587702805, 3.168545305622356 ], [ 99.467177750927689, 3.168247686838697 ], [ 99.467489649877493, 3.16813743859893 ], [ 99.468011057973214, 3.167931350924929 ], [ 99.468830080893596, 3.167622202200238 ], [ 99.469106439808101, 3.167527955252946 ] ] ] ] } },
{ "type": "Feature", "properties": { "KEBUN": "1KDH", "AFDELING": "AFD04", "BLOK": "24A" }, "geometry": { "type": "MultiPolygon", "coordinates": [ [ [ [ 99.470789912905786, 3.163245569506777 ], [ 99.470759391002929, 3.163175772504386 ], [ 99.470698154237255, 3.163214962806716 ], [ 99.470658287873093, 3.163123874051804 ], [ 99.470623028318883, 3.16299957748279 ], [ 99.46980360765933, 3.163316139794325 ], [ 99.469147293806813, 3.163604144127079 ], [ 99.468811835641546, 3.16374563990699 ], [ 99.46794153869125, 3.164075156625296 ], [ 99.467795618629978, 3.164135318389079 ], [ 99.468425493812049, 3.165795547360502 ], [ 99.469106439808101, 3.167527955252946 ], [ 99.469606430588584, 3.167353950886477 ], [ 99.470379260108331, 3.167056311440154 ], [ 99.471003520283659, 3.166809005658699 ], [ 99.471606355994311, 3.166578942450443 ], [ 99.472004904593817, 3.166406420025438 ], [ 99.472070611487311, 3.166370485309562 ], [ 99.471986211241031, 3.166143609326203 ], [ 99.471989745670854, 3.166060309043933 ], [ 99.47199328400184, 3.165985626674329 ], [ 99.472024682995439, 3.165910931562851 ], [ 99.472055374854676, 3.165852752483575 ], [ 99.472069078790497, 3.165807918766999 ], [ 99.47211173731263, 3.165690439235446 ], [ 99.472158837204631, 3.165580550591562 ], [ 99.47216095931779, 3.16553459223605 ], [ 99.47206940635931, 3.1652868948537 ], [ 99.472006462491024, 3.165113865128218 ], [ 99.471844904691523, 3.164648124674352 ], [ 99.471728885556644, 3.164329530144349 ], [ 99.471641378647078, 3.164116281692175 ], [ 99.471586608540591, 3.164113912940726 ], [ 99.471475845892869, 3.164040958211594 ], [ 99.47137578450311, 3.163934487684196 ], [ 99.471313831229097, 3.163845952085695 ], [ 99.471174731483075, 3.163772053104074 ], [ 99.471150883224823, 3.163692595690228 ], [ 99.471122288561588, 3.163649523678151 ], [ 99.471003222721521, 3.163644790453582 ], [ 99.470944041116866, 3.163535423462483 ], [ 99.470845206372658, 3.163352778829805 ], [ 99.470789912905786, 3.163245569506777 ] ] ] ] } },
{ "type": "Feature", "properties": { "KEBUN": "1KDH", "AFDELING": "AFD04", "BLOK": "32" }, "geometry": { "type": "MultiPolygon", "coordinates": [ [ [ [ 99.461075804018535, 3.166746318666541 ], [ 99.460633819902426, 3.165592045695715 ], [ 99.460443092478272, 3.165082288848618 ], [ 99.459985951826098, 3.163878501136506 ], [ 99.459796890111491, 3.163370697416337 ], [ 99.458628714570978, 3.163825048640582 ], [ 99.458485851699095, 3.16385575069202 ], [ 99.458368689069033, 3.163846626583698 ], [ 99.458151965959274, 3.163786882133423 ], [ 99.458082898180024, 3.16376178000096 ], [ 99.458081738466333, 3.1638323921901 ], [ 99.458081767888558, 3.163899414102246 ], [ 99.458100953570749, 3.164166357924449 ], [ 99.458160001877275, 3.164149097673868 ], [ 99.458270522685666, 3.164216070555875 ], [ 99.458384865022538, 3.164309849953404 ], [ 99.458480164522669, 3.164418956647416 ], [ 99.458541155125431, 3.164487865776322 ], [ 99.458602140685784, 3.164545285534073 ], [ 99.45873930801082, 3.164556713969461 ], [ 99.458954565653656, 3.164533639574058 ], [ 99.45910885280702, 3.164489528707778 ], [ 99.459194578654717, 3.164489490587104 ], [ 99.459257469564477, 3.164546909453511 ], [ 99.459274650984199, 3.164629242579327 ], [ 99.459253753398343, 3.164759464404144 ], [ 99.45922712642006, 3.164857135871308 ], [ 99.459227177843772, 3.16497394471887 ], [ 99.459269168617652, 3.165157756821529 ], [ 99.459307364905627, 3.165374123513546 ], [ 99.459324602013353, 3.16558283964842 ], [ 99.459315160646995, 3.165774333603355 ], [ 99.459320937280893, 3.165914118633584 ], [ 99.459309629455007, 3.166191783671165 ], [ 99.459283043796248, 3.16638328525556 ], [ 99.45931931544294, 3.166555610520115 ], [ 99.459361306336206, 3.166739421697047 ], [ 99.459424292824522, 3.167011308966582 ], [ 99.459471957478328, 3.167101288381688 ], [ 99.459475836495074, 3.167256393102285 ], [ 99.459456190452897, 3.167453100711649 ], [ 99.459828552298674, 3.167298183894958 ], [ 99.460491108929361, 3.167006300040164 ], [ 99.460708258646946, 3.166893269879933 ], [ 99.460859428716788, 3.166801047713753 ], [ 99.461047530633394, 3.166755484795408 ], [ 99.461075804018535, 3.166746318666541 ] ] ] ] } },
{ "type": "Feature", "properties": { "KEBUN": "1KDH", "AFDELING": "AFD04", "BLOK": "33" }, "geometry": { "type": "MultiPolygon", "coordinates": [ [ [ [ 99.467795618629978, 3.164135318389062 ], [ 99.467478732428148, 3.163295999908177 ], [ 99.466846825934823, 3.161619853919996 ], [ 99.466516184312951, 3.160765026838406 ], [ 99.46632581427221, 3.160825288916806 ], [ 99.465226364524582, 3.161257789613895 ], [ 99.463057044295837, 3.162098707590824 ], [ 99.460003905066955, 3.163290180582013 ], [ 99.459796890111491, 3.163370697416337 ], [ 99.459985951826098, 3.163878501136506 ], [ 99.460443092478272, 3.165082288848618 ], [ 99.460633819902426, 3.165592045695715 ], [ 99.461075804018535, 3.166746318666541 ], [ 99.461188005770339, 3.166709943133764 ], [ 99.462537215723387, 3.166183340840984 ], [ 99.463765741839694, 3.165699277416713 ], [ 99.464141929211507, 3.165577034328788 ], [ 99.46456333950772, 3.165406897230368 ], [ 99.465056178071208, 3.165212791942488 ], [ 99.465846619585022, 3.164891690701969 ], [ 99.46605137186269, 3.164807821886604 ], [ 99.466548970650308, 3.164611320051444 ], [ 99.467467276375189, 3.164270691347832 ], [ 99.467795618629978, 3.164135318389062 ] ] ] ] } },
{ "type": "Feature", "properties": { "KEBUN": "1KDH", "AFDELING": "AFD04", "BLOK": "34" }, "geometry": { "type": "MultiPolygon", "coordinates": [ [ [ [ 99.46980360765933, 3.163316139794325 ], [ 99.470623028318883, 3.16299957748279 ], [ 99.470589717200085, 3.162882149479207 ], [ 99.470505337831241, 3.162434461530497 ], [ 99.470393767797844, 3.16215302326068 ], [ 99.470256446944077, 3.16179978734367 ], [ 99.470124843422326, 3.161449421129092 ], [ 99.470083389603289, 3.161406354919992 ], [ 99.469953370517715, 3.161400669372662 ], [ 99.469846100166066, 3.161149388138453 ], [ 99.46972887165353, 3.160992898556903 ], [ 99.469687419806704, 3.160954140379887 ], [ 99.469628818357592, 3.160905337262141 ], [ 99.469563033548482, 3.160767494928896 ], [ 99.469482934080673, 3.160569339992913 ], [ 99.469365788294496, 3.160596679943691 ], [ 99.469337206061979, 3.160580895513501 ], [ 99.469275686489084, 3.160397092902998 ], [ 99.469161251814526, 3.160098420774017 ], [ 99.468785467238533, 3.160051198088502 ], [ 99.468761165047113, 3.160022485723782 ], [ 99.468726422722369, 3.15993740607759 ], [ 99.467894214566243, 3.160251661307517 ], [ 99.467894039008499, 3.160251505768513 ], [ 99.467307065194689, 3.160474876420304 ], [ 99.466724946024897, 3.160698942991585 ], [ 99.466516184312951, 3.160765026838423 ], [ 99.466846825934837, 3.161619853919996 ], [ 99.467478732428148, 3.163295999908177 ], [ 99.467795618629978, 3.164135318389079 ], [ 99.46794153869125, 3.164075156625296 ], [ 99.468811835641546, 3.16374563990699 ], [ 99.469147293806813, 3.163604144127079 ], [ 99.46980360765933, 3.163316139794325 ] ] ] ] } },
{ "type": "Feature", "properties": { "KEBUN": "1KDH", "AFDELING": "AFD04", "BLOK": "42" }, "geometry": { "type": "MultiPolygon", "coordinates": [ [ [ [ 99.459796890111491, 3.163370697416337 ], [ 99.458954474786808, 3.161180871859278 ], [ 99.458820073247509, 3.160826432930044 ], [ 99.458702819604838, 3.160881843822708 ], [ 99.45852568907479, 3.160963066305617 ], [ 99.458187857218192, 3.161124785597695 ], [ 99.45803858435454, 3.161199532662335 ], [ 99.457854310085509, 3.161282193929816 ], [ 99.457692177205672, 3.161353356897886 ], [ 99.457651429938949, 3.161290900809232 ], [ 99.457630718042651, 3.161303117662501 ], [ 99.457378592924513, 3.161420277910997 ], [ 99.457153608397434, 3.161525217513019 ], [ 99.456972906108732, 3.161607877966009 ], [ 99.456800775723934, 3.161689097978715 ], [ 99.456635070917727, 3.161763133817281 ], [ 99.456512225420752, 3.161827097951567 ], [ 99.456380809537407, 3.161896092232741 ], [ 99.456165819974302, 3.161985948110351 ], [ 99.45596654629496, 3.16207579701376 ], [ 99.455729410168715, 3.162165662583253 ], [ 99.455507988631709, 3.1622504948016 ], [ 99.455292282100302, 3.162335323554629 ], [ 99.455239300163456, 3.162367697178077 ], [ 99.455248280375869, 3.16237786810274 ], [ 99.455278864435357, 3.162448026658801 ], [ 99.455261746847853, 3.162511225760209 ], [ 99.45527320868004, 3.162583986445174 ], [ 99.455393293277723, 3.162739040976259 ], [ 99.45551146584539, 3.162880690855125 ], [ 99.455642955539957, 3.162978293449072 ], [ 99.45575918940547, 3.16304334802109 ], [ 99.455877329501774, 3.163108402641266 ], [ 99.455970697394363, 3.163158149318427 ], [ 99.456046917628498, 3.163202157965416 ], [ 99.456132635038415, 3.163182970861868 ], [ 99.456231670287139, 3.163123565970162 ], [ 99.456311657564896, 3.163069913266389 ], [ 99.456405000348084, 3.163062212146427 ], [ 99.45646025307687, 3.163079421791475 ], [ 99.45652314885217, 3.16314641593801 ], [ 99.45655177269191, 3.163257467519197 ], [ 99.456599446113685, 3.163368509773025 ], [ 99.456698547544562, 3.163460381839363 ], [ 99.456795721881662, 3.163502465960913 ], [ 99.456892891257269, 3.16353114641072 ], [ 99.457009146273606, 3.163642159201558 ], [ 99.457117783458855, 3.163758920032742 ], [ 99.457241658836452, 3.163871844613461 ], [ 99.457416963921176, 3.16396942663281 ], [ 99.457569397897544, 3.164042125719152 ], [ 99.457727551988114, 3.164126310709729 ], [ 99.45781330638998, 3.164191379426222 ], [ 99.457855275022467, 3.164325403767823 ], [ 99.457857234964649, 3.164449871674147 ], [ 99.457902972232247, 3.164488148989521 ], [ 99.45797535767602, 3.164474712320068 ], [ 99.45803248302883, 3.164417240133861 ], [ 99.458059081534287, 3.164254461966237 ], [ 99.458100953570749, 3.164166357924449 ], [ 99.458081767888558, 3.163899414102246 ], [ 99.458081738466333, 3.1638323921901 ], [ 99.458082898180024, 3.16376178000096 ], [ 99.458151965959274, 3.163786882133423 ], [ 99.458368689069033, 3.163846626583698 ], [ 99.458485851699095, 3.16385575069202 ], [ 99.458628714570978, 3.163825048640582 ], [ 99.459796890111491, 3.163370697416337 ] ] ] ] } },
{ "type": "Feature", "properties": { "KEBUN": "1KDH", "AFDELING": "AFD04", "BLOK": "43" }, "geometry": { "type": "MultiPolygon", "coordinates": [ [ [ [ 99.465226364524597, 3.161257789613912 ], [ 99.46632581427221, 3.160825288916789 ], [ 99.466724946024897, 3.160698942991585 ], [ 99.467307065194689, 3.160474876420304 ], [ 99.467894039052354, 3.160251505884949 ], [ 99.467894214579005, 3.160251661292935 ], [ 99.468726422722369, 3.15993740607759 ], [ 99.468666763425176, 3.159791304831017 ], [ 99.468490810301546, 3.159310266525091 ], [ 99.468423584971148, 3.159146573684235 ], [ 99.468303424114751, 3.158822052942852 ], [ 99.468191860315997, 3.158552103621044 ], [ 99.468073131785431, 3.158236199196018 ], [ 99.46796012542373, 3.157936090471935 ], [ 99.467844265102428, 3.157641727692023 ], [ 99.467767019018382, 3.157434953315772 ], [ 99.467686914438303, 3.157223872164246 ], [ 99.467571050829534, 3.156923764650124 ], [ 99.467473505208844, 3.15673884365376 ], [ 99.467325229460272, 3.156808159763511 ], [ 99.467248290644619, 3.156658206833712 ], [ 99.467154135938301, 3.156526853614004 ], [ 99.467095950512004, 3.156477706330127 ], [ 99.466640094718088, 3.15671015345264 ], [ 99.466679421372177, 3.1567347871785 ], [ 99.46678804588359, 3.15682090837458 ], [ 99.466910942072545, 3.156873512193022 ], [ 99.466934781667888, 3.156934778610557 ], [ 99.466927185768029, 3.156987441287324 ], [ 99.46687302636461, 3.15703379496761 ], [ 99.466777208790788, 3.157106839931804 ], [ 99.466501514206456, 3.157230475733981 ], [ 99.466295103401947, 3.157329664014136 ], [ 99.466061551556834, 3.157441790462721 ], [ 99.465968700076658, 3.157482045934485 ], [ 99.465741574890274, 3.157587706436557 ], [ 99.465618728643236, 3.157647362542382 ], [ 99.465637314140949, 3.157674641858339 ], [ 99.465625176167848, 3.157687573301132 ], [ 99.465466613807465, 3.157754425859948 ], [ 99.465261623732545, 3.157837098500728 ], [ 99.465036632342176, 3.157922651530558 ], [ 99.46494021211339, 3.157968652301014 ], [ 99.464915188705106, 3.15792270610629 ], [ 99.464897331609961, 3.157928458809842 ], [ 99.464812336035649, 3.157964401698353 ], [ 99.46466091523348, 3.158025507163444 ], [ 99.464415216087247, 3.158130458345455 ], [ 99.46422237142373, 3.158215278475233 ], [ 99.463955247792072, 3.158338908933778 ], [ 99.463781690953468, 3.158421567217531 ], [ 99.463536711354038, 3.158540161285381 ], [ 99.463435292533205, 3.158592627165353 ], [ 99.463261738465661, 3.158681747460307 ], [ 99.462963901960507, 3.158817599124753 ], [ 99.462813197087215, 3.158882294684295 ], [ 99.462801059115904, 3.158897379225608 ], [ 99.462867546731943, 3.159010807385763 ], [ 99.462892582813041, 3.159085477039869 ], [ 99.462867589349997, 3.159107031232844 ], [ 99.462725456066366, 3.159171722950213 ], [ 99.462511898880393, 3.159265887408562 ], [ 99.462373336392531, 3.159327705145969 ], [ 99.462191207703256, 3.159414675095326 ], [ 99.461999795276242, 3.159507393846515 ], [ 99.461888386900995, 3.159587869161129 ], [ 99.461758399034977, 3.159652554434 ], [ 99.461686249120277, 3.159658331330559 ], [ 99.461568392302183, 3.159694288659102 ], [ 99.461417687879546, 3.159762573793387 ], [ 99.46118199668804, 3.159885472205771 ], [ 99.46096129589273, 3.159981794505236 ], [ 99.460898355482158, 3.159811635199786 ], [ 99.460780491956754, 3.159832512428844 ], [ 99.4606497865704, 3.159892889836359 ], [ 99.460504799238564, 3.159964045549667 ], [ 99.460283389751226, 3.160074011428401 ], [ 99.460166971562089, 3.160133664111318 ], [ 99.459978417875618, 3.160229971913804 ], [ 99.459764149709414, 3.160335625554782 ], [ 99.459562740771901, 3.160441274346131 ], [ 99.459306334458219, 3.160569925371442 ], [ 99.459179205052493, 3.160637482337026 ], [ 99.459129217296393, 3.160681307982492 ], [ 99.458914233019797, 3.160781935417809 ], [ 99.458820073247509, 3.160826432930077 ], [ 99.458954474786836, 3.161180871859278 ], [ 99.459796890111491, 3.163370697416354 ], [ 99.460003905066955, 3.16329018058203 ], [ 99.463057044295823, 3.162098707590824 ], [ 99.465226364524597, 3.161257789613912 ] ], [ [ 99.465330006777435, 3.160066546173533 ], [ 99.465387108429681, 3.159957371567975 ], [ 99.465400382329861, 3.159821407581034 ], [ 99.465358357604416, 3.15956291501992 ], [ 99.465220132655389, 3.159313083654224 ], [ 99.465166732045233, 3.159178107704715 ], [ 99.465099070740564, 3.159103456393984 ], [ 99.46509304193178, 3.159096076965527 ], [ 99.465089515324678, 3.159034524535446 ], [ 99.465036088762517, 3.158841143738995 ], [ 99.465036043605721, 3.158739654719684 ], [ 99.465081743317867, 3.158693676736353 ], [ 99.465180792031845, 3.158666823091198 ], [ 99.465310304094658, 3.158601659077815 ], [ 99.465455040540505, 3.158502019219631 ], [ 99.465607404957822, 3.158419609949744 ], [ 99.465740747999163, 3.158402315889674 ], [ 99.465942649905969, 3.158337118310488 ], [ 99.465978883683007, 3.158425187369747 ], [ 99.465870346991451, 3.158534385154276 ], [ 99.465723711256103, 3.158647430473303 ], [ 99.465611376743809, 3.158783438148975 ], [ 99.465546672748431, 3.158932829837609 ], [ 99.465550537055464, 3.15905538155719 ], [ 99.465600134387486, 3.159204720890822 ], [ 99.465668788893595, 3.159371285676334 ], [ 99.465703116583015, 3.159455526115377 ], [ 99.465686028690342, 3.159583831944446 ], [ 99.465701381968998, 3.159838506103145 ], [ 99.465716696898269, 3.160005094897006 ], [ 99.46570339141158, 3.160072122747919 ], [ 99.465465380714974, 3.160332655678384 ], [ 99.465353015306889, 3.160399728121036 ], [ 99.465156870631446, 3.160560667411898 ], [ 99.465078822595615, 3.16069091586328 ], [ 99.465048415452031, 3.160855610052175 ], [ 99.464970369137419, 3.160987773693831 ], [ 99.464789354154775, 3.160901684002762 ], [ 99.464810274034647, 3.160823164276019 ], [ 99.464869234213495, 3.16060866942292 ], [ 99.46497200844702, 3.160392239670466 ], [ 99.46507483042943, 3.160281129317496 ], [ 99.465330006777435, 3.160066546173533 ] ] ] ] } },
{ "type": "Feature", "properties": { "KEBUN": "1KDH", "AFDELING": "AFD04", "BLOK": "44" }, "geometry": { "type": "MultiPolygon", "coordinates": [ [ [ [ 99.467473505208844, 3.156738843653743 ], [ 99.467571050829534, 3.156923764650124 ], [ 99.467686914438303, 3.157223872164246 ], [ 99.467767019018368, 3.157434953315772 ], [ 99.467844265102428, 3.157641727692005 ], [ 99.46796012542373, 3.157936090471952 ], [ 99.468073131785417, 3.158236199196018 ], [ 99.468191860315983, 3.158552103621044 ], [ 99.468303424114737, 3.158822052942835 ], [ 99.468423584971148, 3.1591465736842 ], [ 99.468490810301518, 3.159310266525057 ], [ 99.468666763425162, 3.159791304831017 ], [ 99.468761165047113, 3.160022485723764 ], [ 99.468785467238519, 3.160051198088502 ], [ 99.469161251814526, 3.160098420774001 ], [ 99.469275686489084, 3.160397092902998 ], [ 99.469337206061979, 3.160580895513501 ], [ 99.469365788294496, 3.160596679943674 ], [ 99.469482934080645, 3.160569339992897 ], [ 99.469563033548482, 3.160767494928863 ], [ 99.469628818357592, 3.160905337262124 ], [ 99.469687419806704, 3.160954140379904 ], [ 99.46972887165353, 3.160992898556903 ], [ 99.469846100166066, 3.161149388138436 ], [ 99.469953370517715, 3.161400669372644 ], [ 99.470083389603275, 3.161406354919992 ], [ 99.470124843422312, 3.161449421129075 ], [ 99.470256446944092, 3.16179978734367 ], [ 99.470393767797844, 3.16215302326068 ], [ 99.470505337831227, 3.16243446153048 ], [ 99.470589717200085, 3.162882149479207 ], [ 99.470658287873093, 3.163123874051804 ], [ 99.470698154237255, 3.163214962806699 ], [ 99.470759391002915, 3.163175772504351 ], [ 99.470738424428092, 3.163127827144728 ], [ 99.47069695043254, 3.163040239304258 ], [ 99.47067829151959, 3.162850673544018 ], [ 99.470638178116531, 3.162610851199675 ], [ 99.470585214523041, 3.162391141064226 ], [ 99.470542269547934, 3.162208766745799 ], [ 99.47049070674035, 3.161925864536287 ], [ 99.470453475550542, 3.161740615268422 ], [ 99.470390478218178, 3.161447664615555 ], [ 99.470338919793122, 3.161176251730724 ], [ 99.47029021464553, 3.160893348189482 ], [ 99.470234375254023, 3.160630554248888 ], [ 99.47019425500055, 3.160374933542793 ], [ 99.470148453361062, 3.160193997098569 ], [ 99.470122675394961, 3.160061880381579 ], [ 99.470112655813224, 3.160020236492875 ], [ 99.47006115534306, 3.159875206399242 ], [ 99.47001676397683, 3.15965405657108 ], [ 99.469963794546459, 3.15941854804178 ], [ 99.469949454679977, 3.159302224424781 ], [ 99.469897914635865, 3.159071024195208 ], [ 99.469827767950306, 3.158763715908605 ], [ 99.469796253377069, 3.158581336312914 ], [ 99.469734685494288, 3.158289821518442 ], [ 99.469707478322704, 3.158153397365686 ], [ 99.469644496787694, 3.157896351253809 ], [ 99.469615857862223, 3.157754183068113 ], [ 99.469534263325556, 3.1574066662855 ], [ 99.469474116451124, 3.15709648015285 ], [ 99.469360992578828, 3.156534988894704 ], [ 99.469312300979524, 3.156280808586474 ], [ 99.469253596112509, 3.156000780860664 ], [ 99.469230055680683, 3.155928505405414 ], [ 99.468118509850029, 3.156436798262904 ], [ 99.467701401801676, 3.156632306750688 ], [ 99.467473505208844, 3.156738843653743 ] ] ] ] } },
{ "type": "Feature", "properties": { "KEBUN": "1KDH", "AFDELING": "AFD04", "BLOK": "52" }, "geometry": { "type": "MultiPolygon", "coordinates": [ [ [ [ 99.458711925866169, 3.16054164679768 ], [ 99.457972676130382, 3.158618968725954 ], [ 99.457217549053837, 3.156636700301573 ], [ 99.456436533981702, 3.156943927972617 ], [ 99.454058375526245, 3.157855252953852 ], [ 99.453328632461705, 3.158118871485865 ], [ 99.452776274297946, 3.158340523649025 ], [ 99.452293309463059, 3.158557152307628 ], [ 99.452311070892137, 3.158575486839194 ], [ 99.452396841920518, 3.158680768044032 ], [ 99.452467387278531, 3.158818610649096 ], [ 99.452509336771328, 3.158908592136249 ], [ 99.452627531709794, 3.159103860774047 ], [ 99.452770491380022, 3.159295288153808 ], [ 99.452850555783684, 3.159419721068992 ], [ 99.452892521038294, 3.159548001056643 ], [ 99.452947821757363, 3.159674360906533 ], [ 99.453064099179343, 3.159838990758581 ], [ 99.453157515662525, 3.160001716317708 ], [ 99.453252844066895, 3.160181675092585 ], [ 99.453317695394475, 3.160367391905689 ], [ 99.453392069022172, 3.160547360750491 ], [ 99.453439754501687, 3.160685212368057 ], [ 99.453565561886691, 3.16086132823482 ], [ 99.453716143116566, 3.161056581564329 ], [ 99.453944875540088, 3.161355205837467 ], [ 99.4541621754435, 3.16165000466834 ], [ 99.454286077828783, 3.161824206049373 ], [ 99.454484315040588, 3.162088375430445 ], [ 99.454585345605409, 3.162237692870455 ], [ 99.454667244912216, 3.162199359219706 ], [ 99.454859622077009, 3.162130337397069 ], [ 99.454986270403026, 3.162081139683076 ], [ 99.455029481291646, 3.162130076248476 ], [ 99.455213686195535, 3.162029752584655 ], [ 99.455520822334805, 3.161919510133508 ], [ 99.455742240043364, 3.161826061798287 ], [ 99.455839862355802, 3.161802081943356 ], [ 99.455935081441112, 3.161730231354063 ], [ 99.456013639703087, 3.161675143596328 ], [ 99.45615888152544, 3.1616391747549 ], [ 99.45633983129737, 3.161576860466148 ], [ 99.456513640976624, 3.161524124382886 ], [ 99.45671839679288, 3.161447437802904 ], [ 99.456930298920341, 3.161375535567124 ], [ 99.457085058086932, 3.161322806913924 ], [ 99.457208864660245, 3.161277274146322 ], [ 99.457320755751482, 3.161212596479143 ], [ 99.457408844946343, 3.161171866128115 ], [ 99.457567043740482, 3.161088018691262 ], [ 99.457551306440592, 3.161039195830995 ], [ 99.45772700971709, 3.160960128165093 ], [ 99.457856998057352, 3.160895443340143 ], [ 99.458016987897068, 3.160822127276355 ], [ 99.458156982372188, 3.160767490731713 ], [ 99.458319833825357, 3.160705662728392 ], [ 99.458436970280331, 3.160653908626319 ], [ 99.458489821306216, 3.16062516176412 ], [ 99.458511237380705, 3.160589248438431 ], [ 99.458572660593219, 3.160557625428486 ], [ 99.458634096774077, 3.160557598175362 ], [ 99.458685530831261, 3.160554703014057 ], [ 99.458711925866169, 3.16054164679768 ] ] ] ] } },
{ "type": "Feature", "properties": { "KEBUN": "1KDH", "AFDELING": "AFD04", "BLOK": "53" }, "geometry": { "type": "MultiPolygon", "coordinates": [ [ [ [ 99.462549399882164, 3.158451620357845 ], [ 99.462598208114031, 3.158433646177014 ], [ 99.462692362124443, 3.158645439883567 ], [ 99.462804259420764, 3.158596320295783 ], [ 99.463201846064692, 3.158405849552818 ], [ 99.46342683425982, 3.158312397271667 ], [ 99.463723237842473, 3.158168647435027 ], [ 99.463949413605761, 3.158070407891215 ], [ 99.464182727533029, 3.157956605612015 ], [ 99.464568408553603, 3.157768533522866 ], [ 99.464766010651786, 3.157673896398922 ], [ 99.464901702786818, 3.157584074593448 ], [ 99.465077882781259, 3.157482968672713 ], [ 99.464869936681694, 3.157386546961607 ], [ 99.464722719114334, 3.157261666743231 ], [ 99.464564008393324, 3.15699460946404 ], [ 99.464269455160249, 3.156476282860244 ], [ 99.464170736974054, 3.156174731396128 ], [ 99.464124936628863, 3.155993793582815 ], [ 99.464199197293041, 3.155916207100218 ], [ 99.464547899622104, 3.156109934113978 ], [ 99.464656700321186, 3.156127174513086 ], [ 99.466194664520444, 3.15690873105132 ], [ 99.46650611294865, 3.156769884322031 ], [ 99.466640094718088, 3.15671015345264 ], [ 99.467095950512004, 3.156477706330127 ], [ 99.467236721097137, 3.15641436539629 ], [ 99.467196918550002, 3.156307576675524 ], [ 99.467129235102135, 3.156183138587282 ], [ 99.467114939039334, 3.156163995808773 ], [ 99.466909179597593, 3.15612291873469 ], [ 99.466814872196096, 3.156100939694166 ], [ 99.466794856435968, 3.156071268181649 ], [ 99.466766241682848, 3.155982237660534 ], [ 99.46674051476775, 3.155961185739085 ], [ 99.466636686093352, 3.155946870844967 ], [ 99.466584290699359, 3.155930617567773 ], [ 99.466559519405479, 3.155917225083617 ], [ 99.466487102078517, 3.15585540606989 ], [ 99.466447087663369, 3.155834360577007 ], [ 99.466351825057572, 3.155807594385128 ], [ 99.466258462636247, 3.155769338874685 ], [ 99.466170813516854, 3.155727250393304 ], [ 99.466045066391672, 3.155689009441535 ], [ 99.465862176920353, 3.155668027317891 ], [ 99.465797396357345, 3.155645077744802 ], [ 99.465683063060169, 3.155570448339042 ], [ 99.465578246812711, 3.155478580600185 ], [ 99.465490601998269, 3.155446067120604 ], [ 99.465427712273836, 3.155390562882711 ], [ 99.465351473626441, 3.155304426949658 ], [ 99.465334299667717, 3.155239327994226 ], [ 99.465404730468634, 3.155116742872889 ], [ 99.465275057041566, 3.154818077785463 ], [ 99.465187321213747, 3.154580669215984 ], [ 99.465215868111244, 3.154517464914476 ], [ 99.465194875120616, 3.15443130414253 ], [ 99.46501750519387, 3.153969893269253 ], [ 99.46488717639842, 3.153621545492537 ], [ 99.464185420727489, 3.153925263417939 ], [ 99.464001300135052, 3.153993110518646 ], [ 99.462998171219752, 3.154362755103676 ], [ 99.461316403936181, 3.155009216884261 ], [ 99.459700999837906, 3.155642250346809 ], [ 99.457388250170325, 3.156569551379012 ], [ 99.457217549053837, 3.156636700301557 ], [ 99.457972676130382, 3.158618968725971 ], [ 99.458711925866169, 3.160541646797713 ], [ 99.458769809760142, 3.160513016202337 ], [ 99.458984320529567, 3.160418372531314 ], [ 99.459218826507609, 3.160306965365242 ], [ 99.459398574567459, 3.160220715251244 ], [ 99.459714030308362, 3.160078153922641 ], [ 99.459939013095706, 3.159972734366726 ], [ 99.460183042916412, 3.159857732120953 ], [ 99.46045087867077, 3.15972835751706 ], [ 99.460680611977935, 3.159595409174504 ], [ 99.460763941215788, 3.15956186109732 ], [ 99.460898343519801, 3.159245842737179 ], [ 99.460998337474621, 3.159202713049576 ], [ 99.461328070164015, 3.159037405947455 ], [ 99.461545906555898, 3.158926005767345 ], [ 99.461729224672197, 3.1588361630633 ], [ 99.461883972556848, 3.158759497910206 ], [ 99.462151811478805, 3.158638500218322 ], [ 99.462372035971953, 3.158542657410444 ], [ 99.462549399882164, 3.158451620357845 ] ] ] ] } },
{ "type": "Feature", "properties": { "KEBUN": "1KDH", "AFDELING": "AFD04", "BLOK": "54" }, "geometry": { "type": "MultiPolygon", "coordinates": [ [ [ [ 99.464887176398406, 3.153621545492521 ], [ 99.46501750519387, 3.153969893269253 ], [ 99.465194875120602, 3.15443130414253 ], [ 99.46521586811123, 3.154517464914442 ], [ 99.465187321213733, 3.154580669215984 ], [ 99.465275057041566, 3.154818077785446 ], [ 99.46540473046862, 3.155116742872873 ], [ 99.465334299667717, 3.155239327994192 ], [ 99.465351473626427, 3.155304426949642 ], [ 99.465427712273836, 3.155390562882711 ], [ 99.465490601998241, 3.155446067120604 ], [ 99.465578246812711, 3.155478580600185 ], [ 99.465683063060169, 3.155570448339026 ], [ 99.465797396357331, 3.155645077744768 ], [ 99.465862176920353, 3.155668027317874 ], [ 99.466045066391658, 3.155689009441518 ], [ 99.466170813516854, 3.155727250393288 ], [ 99.466258462636247, 3.155769338874685 ], [ 99.466351825057572, 3.155807594385128 ], [ 99.466447087663369, 3.155834360576973 ], [ 99.466487102078517, 3.155855406069874 ], [ 99.466559519405479, 3.155917225083617 ], [ 99.466584290699345, 3.15593061756774 ], [ 99.466636686093352, 3.155946870844967 ], [ 99.466740514767736, 3.155961185739085 ], [ 99.466766241682848, 3.155982237660534 ], [ 99.466794856435968, 3.156071268181632 ], [ 99.46681487219611, 3.156100939694149 ], [ 99.466909179597593, 3.156122918734707 ], [ 99.467114939039334, 3.156163995808756 ], [ 99.467129235102135, 3.156183138587265 ], [ 99.467196918550002, 3.15630757667549 ], [ 99.467236721097137, 3.156414365396274 ], [ 99.467411708221661, 3.156335628639194 ], [ 99.467840239431013, 3.156122881081395 ], [ 99.46831068157671, 3.155913944802733 ], [ 99.468984906807705, 3.155586192130398 ], [ 99.469098632192754, 3.155525007302522 ], [ 99.469057110235511, 3.155397523237863 ], [ 99.468919890204546, 3.15473335598597 ], [ 99.468779711531951, 3.154108086460217 ], [ 99.468672319215713, 3.153581538128824 ], [ 99.468555988794577, 3.153034050612143 ], [ 99.468460533627109, 3.1525763135321 ], [ 99.46839364467985, 3.152275983971319 ], [ 99.464887176398406, 3.153621545492521 ] ] ] ] } },
{ "type": "Feature", "properties": { "KEBUN": "1KDH", "AFDELING": "AFD04", "BLOK": "62" }, "geometry": { "type": "MultiPolygon", "coordinates": [ [ [ [ 99.457217549053837, 3.156636700301573 ], [ 99.455857596466984, 3.153072771267293 ], [ 99.455820072165409, 3.153042413302668 ], [ 99.455791497845397, 3.153046016527119 ], [ 99.455766516840171, 3.153096293984892 ], [ 99.455721279736125, 3.153111872485002 ], [ 99.45565222054627, 3.153104721541254 ], [ 99.455608166327124, 3.153102347140674 ], [ 99.455587946167725, 3.153150228731587 ], [ 99.45559987725953, 3.153207670365089 ], [ 99.455599898611922, 3.153256739941837 ], [ 99.455559433148622, 3.153292661580216 ], [ 99.455501101839616, 3.153314230256016 ], [ 99.455483232872652, 3.153292695078659 ], [ 99.455467738537706, 3.15325560115635 ], [ 99.45542963833006, 3.153254421017331 ], [ 99.455380841606569, 3.153298724509133 ], [ 99.455290379854716, 3.153358604913205 ], [ 99.455247328232559, 3.153370740145379 ], [ 99.455184410614748, 3.153349077291499 ], [ 99.455109388544244, 3.153320385899372 ], [ 99.455054618536892, 3.153319213973042 ], [ 99.455007012351842, 3.153361123156151 ], [ 99.454966549602176, 3.153405422971942 ], [ 99.454918940809208, 3.153441347725758 ], [ 99.454848703514685, 3.153465315366165 ], [ 99.454776089355434, 3.153497661339356 ], [ 99.45468560883296, 3.153514455636957 ], [ 99.454579659321084, 3.153550406882496 ], [ 99.454523716784109, 3.153591122819436 ], [ 99.454453474652254, 3.15360192560148 ], [ 99.454376081563922, 3.153597172002693 ], [ 99.454296302781671, 3.15358045149298 ], [ 99.454208189100058, 3.153563734630641 ], [ 99.454114117247357, 3.153536249305991 ], [ 99.454070060927506, 3.153529087300624 ], [ 99.454031981466017, 3.153575779813228 ], [ 99.453976046549244, 3.153632054329051 ], [ 99.453937966698987, 3.15367994372507 ], [ 99.453885594013798, 3.153713477658776 ], [ 99.453823379400035, 3.153719055096543 ], [ 99.453768904794472, 3.15369557639232 ], [ 99.453742714954771, 3.153706358928816 ], [ 99.45374868661338, 3.15374824550246 ], [ 99.453733229157081, 3.153796124080129 ], [ 99.453661801481957, 3.15381889528294 ], [ 99.453604673237876, 3.153869186782012 ], [ 99.453535636425428, 3.153915891930308 ], [ 99.453501102065616, 3.153900348438726 ], [ 99.45345109274615, 3.153894386804958 ], [ 99.453405864372712, 3.153930310457767 ], [ 99.453339212439573, 3.153982999884315 ], [ 99.45327137252626, 3.154044067122781 ], [ 99.453232112154652, 3.154113499149869 ], [ 99.45319165434077, 3.154167373089939 ], [ 99.453157125811529, 3.154167388195006 ], [ 99.453099969545789, 3.154153051471946 ], [ 99.453044001392342, 3.154132730701694 ], [ 99.453008291485858, 3.154154288452949 ], [ 99.45296307965863, 3.154228510618593 ], [ 99.452909517244848, 3.154264438802906 ], [ 99.452848781622208, 3.154233348134674 ], [ 99.452791614999924, 3.154195075492126 ], [ 99.452718974825956, 3.154167579771325 ], [ 99.452653583814609, 3.15414968400894 ], [ 99.452640383738185, 3.154146071979 ], [ 99.452567760647042, 3.154158071662787 ], [ 99.452499924675834, 3.154226319267436 ], [ 99.452451121043836, 3.154255064941024 ], [ 99.452576314942419, 3.154534302613122 ], [ 99.451223558906676, 3.155087617136036 ], [ 99.451294256180034, 3.155234428777077 ], [ 99.451359088570939, 3.155378017797367 ], [ 99.451397265189826, 3.155556087481843 ], [ 99.451467847341817, 3.155780099655622 ], [ 99.451534625605404, 3.156017518058451 ], [ 99.451639505376775, 3.156258750226541 ], [ 99.45173677232107, 3.156517218865351 ], [ 99.451805431131191, 3.156699104704094 ], [ 99.451856942424854, 3.156875253329935 ], [ 99.451860812610988, 3.157013124211588 ], [ 99.45192759348943, 3.157258202446864 ], [ 99.451988651932822, 3.157486049100723 ], [ 99.452011591573111, 3.15766795487624 ], [ 99.452040223824653, 3.157800070244039 ], [ 99.452025043595995, 3.157939864639739 ], [ 99.451983192711154, 3.15807775548868 ], [ 99.451979411142389, 3.158142863931702 ], [ 99.452049952262271, 3.15827113149492 ], [ 99.45217384887998, 3.158433843871454 ], [ 99.452293309463059, 3.158557152307628 ], [ 99.452776274297946, 3.158340523649025 ], [ 99.453328632461705, 3.158118871485865 ], [ 99.454058375526245, 3.157855252953852 ], [ 99.456436533981702, 3.156943927972617 ], [ 99.457217549053837, 3.156636700301573 ] ] ] ] } },
{ "type": "Feature", "properties": { "KEBUN": "1KDH", "AFDELING": "AFD04", "BLOK": "63" }, "geometry": { "type": "MultiPolygon", "coordinates": [ [ [ [ 99.464958343943223, 3.153141536015414 ], [ 99.464976900627192, 3.153104186361895 ], [ 99.464969743309382, 3.153072593831394 ], [ 99.464820984640909, 3.152692075032076 ], [ 99.464460515354034, 3.151735745464184 ], [ 99.464243093085855, 3.151167118512704 ], [ 99.464045694126426, 3.150643003343546 ], [ 99.463876966962516, 3.150199067416113 ], [ 99.463332641457697, 3.150384997836574 ], [ 99.46307569871631, 3.150511129206257 ], [ 99.462920935315253, 3.150551890551546 ], [ 99.462676754511762, 3.150676179649535 ], [ 99.462637617504257, 3.150664516858298 ], [ 99.462097061485139, 3.15063603444893 ], [ 99.462006582469272, 3.150655224005892 ], [ 99.461882808876311, 3.150770172802087 ], [ 99.461387756858642, 3.151332894492339 ], [ 99.46128060991856, 3.151078422830502 ], [ 99.461206830243597, 3.151167019672842 ], [ 99.46112737617652, 3.15121291206155 ], [ 99.460538579074353, 3.151444529821383 ], [ 99.459854515222219, 3.151699005442721 ], [ 99.459218127584478, 3.151963961006562 ], [ 99.458799804228846, 3.152114766461295 ], [ 99.458512912418399, 3.152227393346759 ], [ 99.457889863930319, 3.15248646280526 ], [ 99.457674856690829, 3.152558084090164 ], [ 99.457595087533122, 3.152565299717702 ], [ 99.457573643687695, 3.152535388868111 ], [ 99.457555766332746, 3.152494705382497 ], [ 99.457510518834468, 3.15248634806576 ], [ 99.457466481901022, 3.152523468226854 ], [ 99.457410522152031, 3.152522296039832 ], [ 99.457366479986618, 3.15254744915809 ], [ 99.457322442522226, 3.152583372429273 ], [ 99.457262903879965, 3.152566643212146 ], [ 99.457228381693568, 3.152581020159098 ], [ 99.457153391516684, 3.152625335274611 ], [ 99.457092687771933, 3.152667250314512 ], [ 99.457047447579697, 3.152675648462256 ], [ 99.457026001133826, 3.152639753174813 ], [ 99.456975978301315, 3.152602674506483 ], [ 99.456902160532294, 3.15260510082184 ], [ 99.456883144716514, 3.152684098197874 ], [ 99.456840288006219, 3.152697281922236 ], [ 99.456799799118642, 3.152679348300571 ], [ 99.45675814459014, 3.152718861156529 ], [ 99.45670935421731, 3.152777526414416 ], [ 99.456664123409482, 3.152807466666741 ], [ 99.45662006764114, 3.152801501652736 ], [ 99.456560532122381, 3.152791953705461 ], [ 99.45650933932238, 3.152800353548767 ], [ 99.456448632929025, 3.152836285035677 ], [ 99.456384348174723, 3.152857856377187 ], [ 99.456324830906865, 3.152890195773792 ], [ 99.456289132975186, 3.152936887303279 ], [ 99.456228417178721, 3.152951275753385 ], [ 99.456147454138204, 3.152951311393833 ], [ 99.456095081051615, 3.152983648538987 ], [ 99.45604628280789, 3.153024361401211 ], [ 99.456005825189095, 3.153078236329759 ], [ 99.455983220523166, 3.153118937663167 ], [ 99.455927260211155, 3.153116568515344 ], [ 99.455891075060904, 3.153100577111966 ], [ 99.455862949750582, 3.153077102306719 ], [ 99.455857596466984, 3.153072771267293 ], [ 99.457217549053837, 3.156636700301557 ], [ 99.457388250170325, 3.156569551379012 ], [ 99.459700999837906, 3.155642250346809 ], [ 99.461316403936181, 3.155009216884261 ], [ 99.462998171219752, 3.154362755103676 ], [ 99.464185420727489, 3.153925263417939 ], [ 99.46488717639842, 3.153621545492537 ], [ 99.464946786672087, 3.153598671200318 ], [ 99.464858427268624, 3.153357006359526 ], [ 99.464826950184943, 3.15325648857253 ], [ 99.464892643879168, 3.1531918309941 ], [ 99.464958343943223, 3.153141536015414 ] ] ] ] } },
{ "type": "Feature", "properties": { "KEBUN": "1KDH", "AFDELING": "AFD04", "BLOK": "74A" }, "geometry": { "type": "MultiPolygon", "coordinates": [ [ [ [ 99.466686727239164, 3.146392594610283 ], [ 99.466380906230128, 3.145732574185732 ], [ 99.466299664966144, 3.145755118046388 ], [ 99.46625322626187, 3.145742931222164 ], [ 99.466218912704235, 3.145691244503359 ], [ 99.46618032928022, 3.145673309469227 ], [ 99.46609102533786, 3.145656115505513 ], [ 99.466026723432279, 3.145637474598778 ], [ 99.46596457168468, 3.145633193519434 ], [ 99.46590527746767, 3.145631066088215 ], [ 99.465845267007055, 3.145623194294326 ], [ 99.465761675150219, 3.145599534747279 ], [ 99.465733786007235, 3.14553420173708 ], [ 99.465580222813585, 3.145592434791747 ], [ 99.465436779746383, 3.14565210081859 ], [ 99.465384399547659, 3.145668879758529 ], [ 99.465423736138817, 3.145771787815055 ], [ 99.4654904697002, 3.145905800761759 ], [ 99.465729968741613, 3.146322183636629 ], [ 99.465813388679791, 3.146495683517917 ], [ 99.465699115650906, 3.146554378460837 ], [ 99.465453888042134, 3.146643052388794 ], [ 99.465070575436627, 3.146792825583497 ], [ 99.464864635674232, 3.146876694253754 ], [ 99.464811058880429, 3.146880308891615 ], [ 99.464683693811779, 3.146949780649042 ], [ 99.464330138480946, 3.147081588832035 ], [ 99.46418728853854, 3.147137902642011 ], [ 99.463953966103958, 3.147225374046781 ], [ 99.463748024552444, 3.147305651869135 ], [ 99.463653375268663, 3.147345142469689 ], [ 99.463601475937267, 3.147368228084958 ], [ 99.463635284541326, 3.147426696989831 ], [ 99.46364013024872, 3.147447376585799 ], [ 99.463984975416565, 3.147459437426127 ], [ 99.464801724380365, 3.14742316734631 ], [ 99.465487495167281, 3.147364216386238 ], [ 99.465870863165406, 3.147338911667902 ], [ 99.466012528861611, 3.147299353635356 ], [ 99.466164652054459, 3.147214311117021 ], [ 99.466623138745845, 3.146899583481574 ], [ 99.466860970321733, 3.146677852261321 ], [ 99.466802891721343, 3.146572064088696 ], [ 99.466686727239164, 3.146392594610283 ] ] ], [ [ [ 99.467059082576341, 3.147038705443066 ], [ 99.466988131696141, 3.146909471215798 ], [ 99.466845324287561, 3.147070986261341 ], [ 99.466512538825455, 3.147321030320553 ], [ 99.466116858020641, 3.147502165473732 ], [ 99.465798284742888, 3.147585607237691 ], [ 99.465535405558157, 3.147605831545014 ], [ 99.465211088815494, 3.147623210982444 ], [ 99.464168131358818, 3.147681124684767 ], [ 99.463988129156718, 3.147724290272464 ], [ 99.463725465773635, 3.147811551307329 ], [ 99.463815619778487, 3.148134649834298 ], [ 99.46397438494219, 3.148530962814286 ], [ 99.463917249266686, 3.148562584107286 ], [ 99.463835827973739, 3.148599960934674 ], [ 99.463800119150847, 3.148622955622129 ], [ 99.463798719446416, 3.148687584370381 ], [ 99.463844474121515, 3.148766553745999 ], [ 99.46391593281156, 3.148815351595743 ], [ 99.463950248669249, 3.148874218787986 ], [ 99.46394456674912, 3.148948903094764 ], [ 99.463931724145013, 3.148986249267754 ], [ 99.463943175688996, 3.149035073941532 ], [ 99.463961770759155, 3.149082458797982 ], [ 99.463968940714437, 3.149142774748869 ], [ 99.463886181703586, 3.149386961629138 ], [ 99.463879072124143, 3.149463082292328 ], [ 99.463900540312508, 3.149547806294672 ], [ 99.463880609098467, 3.149708667197579 ], [ 99.463852060296446, 3.149767562497922 ], [ 99.463884968237082, 3.149872388674298 ], [ 99.463889299783077, 3.149975791005938 ], [ 99.463873646350208, 3.150116543610065 ], [ 99.463876966962516, 3.150199067416113 ], [ 99.465068012383824, 3.149735681967448 ], [ 99.467609841177904, 3.148745899105663 ], [ 99.467580675366548, 3.148603300372772 ], [ 99.467473293511688, 3.148094704030269 ], [ 99.467342123302785, 3.147642967167005 ], [ 99.467154392379044, 3.147173303369728 ], [ 99.467059082576341, 3.147038705443066 ] ] ] ] } },
{ "type": "Feature", "properties": { "KEBUN": "1KDH", "AFDELING": "AFD04", "BLOK": "64" }, "geometry": { "type": "MultiPolygon", "coordinates": [ [ [ [ 99.463876966962516, 3.150199067416097 ], [ 99.464045694126398, 3.150643003343546 ], [ 99.464243093085855, 3.151167118512686 ], [ 99.464460515354034, 3.151735745464151 ], [ 99.464820984640909, 3.152692075032059 ], [ 99.464969743309382, 3.153072593831377 ], [ 99.464976900627164, 3.153104186361878 ], [ 99.464958343943238, 3.153141536015397 ], [ 99.464892643879153, 3.1531918309941 ], [ 99.464826950184928, 3.153256488572513 ], [ 99.464858427268624, 3.153357006359492 ], [ 99.464946786672087, 3.153598671200318 ], [ 99.46839364467985, 3.152275983971319 ], [ 99.468335267043244, 3.152013869396929 ], [ 99.468210023806975, 3.151505281339063 ], [ 99.468087763261124, 3.151008660729686 ], [ 99.467956529014387, 3.150413306232148 ], [ 99.46785212739411, 3.149916677490777 ], [ 99.467759650193756, 3.14945893888751 ], [ 99.467676133545879, 3.149070012947492 ], [ 99.467609841177904, 3.148745899105663 ], [ 99.46506801238381, 3.149735681967448 ], [ 99.463876966962516, 3.150199067416097 ] ] ] ] } },
{ "type": "Feature", "properties": { "KEBUN": "1KDH", "AFDELING": "AFD04", "BLOK": "72A" }, "geometry": { "type": "MultiPolygon", "coordinates": [ [ [ [ 99.451300590157572, 3.151143468482635 ], [ 99.450690753922615, 3.151369693726244 ], [ 99.449897932118489, 3.151683603276096 ], [ 99.449230302519794, 3.151930628713485 ], [ 99.449260206336206, 3.151958916735788 ], [ 99.449336459156115, 3.152081437438418 ], [ 99.449445107360916, 3.152228837152641 ], [ 99.449578488830539, 3.152301546021496 ], [ 99.449721420581966, 3.152431697653311 ], [ 99.44988723449687, 3.152615455854657 ], [ 99.450011134134272, 3.15278774283677 ], [ 99.450072151445582, 3.152921759462439 ], [ 99.450121738849148, 3.153053866752475 ], [ 99.450186579068642, 3.153218519461164 ], [ 99.45025714262664, 3.153400404656374 ], [ 99.450308651781341, 3.153572723034307 ], [ 99.450404002134391, 3.153804385371602 ], [ 99.450489785719171, 3.153940305480833 ], [ 99.450554638507981, 3.154131767306912 ], [ 99.450636630577065, 3.154309817991154 ], [ 99.450766251272043, 3.15449742212254 ], [ 99.450893945336759, 3.154633323941046 ], [ 99.451002575148038, 3.154734766796772 ], [ 99.451113121765275, 3.154864931354745 ], [ 99.451210361159511, 3.155060209400927 ], [ 99.451223558906676, 3.155087617136036 ], [ 99.452576314942419, 3.154534302613122 ], [ 99.452451121043836, 3.154255064941024 ], [ 99.452225246596626, 3.153675307179444 ], [ 99.451694822191413, 3.152296212011221 ], [ 99.451295216332781, 3.151223018967662 ], [ 99.451300590157572, 3.151143468482635 ] ] ] ] } },
{ "type": "Feature", "properties": { "KEBUN": "1KDH", "AFDELING": "AFD04", "BLOK": "83A" }, "geometry": { "type": "MultiPolygon", "coordinates": [ [ [ [ 99.458141773019548, 3.147479864673563 ], [ 99.458537989913182, 3.147431817954641 ], [ 99.458650415780568, 3.147502618815179 ], [ 99.458966659169917, 3.147536947159038 ], [ 99.459145740914551, 3.147565591394558 ], [ 99.45944557204011, 3.147665718421954 ], [ 99.459463626408279, 3.147566135581792 ], [ 99.459481686165475, 3.147480914452819 ], [ 99.459529276765053, 3.147402382988407 ], [ 99.459598783762047, 3.147345862511101 ], [ 99.45963306556601, 3.147327656131601 ], [ 99.459718746842697, 3.147227085296554 ], [ 99.459756819851322, 3.147166749241675 ], [ 99.459768241801299, 3.147148552981855 ], [ 99.459786342655477, 3.147157161993599 ], [ 99.459901529074941, 3.147006791110829 ], [ 99.459972914865446, 3.146889950589167 ], [ 99.460122475386257, 3.146932012313107 ], [ 99.460232026516294, 3.146965474722116 ], [ 99.460327280648556, 3.146975006667609 ], [ 99.460396837991595, 3.147033380724176 ], [ 99.460293084151218, 3.147187576071453 ], [ 99.460230262425313, 3.147285263564624 ], [ 99.460183642142567, 3.147404965467396 ], [ 99.460117974673736, 3.147529462446359 ], [ 99.460184675466749, 3.147587837778948 ], [ 99.460253289897835, 3.147667275800319 ], [ 99.461331320743042, 3.147246780342399 ], [ 99.461370803004627, 3.147231379709496 ], [ 99.462433439514385, 3.146813362551387 ], [ 99.46312274987315, 3.146542202136712 ], [ 99.462848866874538, 3.146046885613897 ], [ 99.462548598911667, 3.145518506729919 ], [ 99.462301244691531, 3.145104999642394 ], [ 99.462159676612501, 3.144826444574059 ], [ 99.462068167932827, 3.144668506475266 ], [ 99.462089562499457, 3.144586634766398 ], [ 99.461940851332344, 3.144308082823274 ], [ 99.461669173374247, 3.143814159827785 ], [ 99.461456134215979, 3.143456647392753 ], [ 99.461396993168123, 3.143354307895624 ], [ 99.460677658367146, 3.143626827307048 ], [ 99.460685588440342, 3.143645745042257 ], [ 99.460064435785597, 3.143891324597169 ], [ 99.459578647172307, 3.144077722533882 ], [ 99.459037246727547, 3.144286207144502 ], [ 99.458915407438866, 3.144310438398363 ], [ 99.45822802414574, 3.144580213687755 ], [ 99.457500408665069, 3.144865779301068 ], [ 99.457543195782222, 3.144970352668351 ], [ 99.457535651080974, 3.14514365465967 ], [ 99.457452859798366, 3.145316989789262 ], [ 99.457386194405814, 3.145337125549746 ], [ 99.457375703757862, 3.145307448680974 ], [ 99.457189017186948, 3.1453132755474 ], [ 99.45715949981907, 3.145335310141527 ], [ 99.45720528242289, 3.145479865230459 ], [ 99.457233913919808, 3.145610065241863 ], [ 99.457380757759026, 3.145975747191076 ], [ 99.457496144748561, 3.146286867528114 ], [ 99.457615165135451, 3.146501098247679 ], [ 99.457677268128805, 3.146638927081309 ], [ 99.457697313503701, 3.146727205489814 ], [ 99.457686863760003, 3.146791358798651 ], [ 99.457613551593468, 3.146858413063014 ], [ 99.457526893284808, 3.14690249355177 ], [ 99.457485971430273, 3.14698293720265 ], [ 99.457371684642581, 3.147013626187355 ], [ 99.457276424299309, 3.146987817054519 ], [ 99.457134497841935, 3.146977347324431 ], [ 99.457036402899334, 3.147006114851683 ], [ 99.456920219207092, 3.147054037781896 ], [ 99.456849764032285, 3.147120132693412 ], [ 99.456758353314811, 3.147188152018524 ], [ 99.456649793590287, 3.147244689505095 ], [ 99.456498367450507, 3.147291670749176 ], [ 99.456352661607781, 3.147353012083124 ], [ 99.456165047846483, 3.147417243254204 ], [ 99.455993625513671, 3.147478595843103 ], [ 99.455855535700849, 3.147530358686003 ], [ 99.455566978541057, 3.147642506787457 ], [ 99.455330795332685, 3.147724951254357 ], [ 99.455009860029421, 3.147856262684066 ], [ 99.454772729085349, 3.14794923968409 ], [ 99.454379410516964, 3.148094944375382 ], [ 99.454172753787262, 3.14817450242985 ], [ 99.454005842377654, 3.148236838846803 ], [ 99.454219036585059, 3.148796934212902 ], [ 99.454385676281802, 3.148749179429676 ], [ 99.455153288481739, 3.14851522597809 ], [ 99.455416134793808, 3.148417450051905 ], [ 99.456520875514883, 3.148056963634525 ], [ 99.45739133248226, 3.147771260341605 ], [ 99.457697991158653, 3.147667720805549 ], [ 99.458082722268784, 3.147489465813337 ], [ 99.458141773019548, 3.147479864673563 ] ] ], [ [ [ 99.458856263389592, 3.147751465442815 ], [ 99.45855717655003, 3.147743937729198 ], [ 99.458218106630085, 3.147788129757258 ], [ 99.457541922135249, 3.147989492982496 ], [ 99.45641813685576, 3.148359562979532 ], [ 99.455372432577263, 3.148675981120732 ], [ 99.454307007857508, 3.149028048433132 ], [ 99.454619951147237, 3.149850199829939 ], [ 99.454626867331072, 3.149847448394815 ], [ 99.454843527615552, 3.14976956037757 ], [ 99.455230415485346, 3.149622182796249 ], [ 99.45556254250755, 3.149490387740396 ], [ 99.456055380600844, 3.149308255485144 ], [ 99.456871869246967, 3.149001139905847 ], [ 99.457260409164789, 3.148848300301719 ], [ 99.457449271477586, 3.148774006559839 ], [ 99.457611510158614, 3.148710187095781 ], [ 99.45769698716316, 3.148707929325238 ], [ 99.457831506064196, 3.148658801313695 ], [ 99.45791365422086, 3.148646796216332 ], [ 99.458031518401668, 3.148629989617973 ], [ 99.458236265923745, 3.148540138276128 ], [ 99.45837196776111, 3.148475450173666 ], [ 99.458529100494388, 3.14840716283688 ], [ 99.458708850915343, 3.148330487287886 ], [ 99.458815987274292, 3.148287354784781 ], [ 99.458940979308593, 3.148233442411802 ], [ 99.459059477451973, 3.148170364922409 ], [ 99.459497262964163, 3.147997904816701 ], [ 99.459082975211331, 3.147791577999186 ], [ 99.458856263389592, 3.147751465442815 ] ] ] ] } },
{ "type": "Feature", "properties": { "KEBUN": "1KDH", "AFDELING": "AFD04", "BLOK": "113" }, "geometry": { "type": "MultiPolygon", "coordinates": [ [ [ [ 99.448653896571173, 3.134310666284728 ], [ 99.44913015188267, 3.135523501054855 ], [ 99.449535430264859, 3.13662918181563 ], [ 99.449852472376065, 3.137423729761826 ], [ 99.450033609245764, 3.137809025480127 ], [ 99.450153454714993, 3.137965767633819 ], [ 99.450510425334471, 3.138322171449145 ], [ 99.450869286698691, 3.138125448980503 ], [ 99.451250199777149, 3.137933793892501 ], [ 99.451393029594058, 3.137833199857432 ], [ 99.451488239784936, 3.137742200640957 ], [ 99.451673945806363, 3.137675098992736 ], [ 99.452135781356532, 3.137392450591957 ], [ 99.452678550829603, 3.13704753238241 ], [ 99.453107062945406, 3.136798409111107 ], [ 99.453449886271258, 3.136630705822614 ], [ 99.453787913731944, 3.136386409246354 ], [ 99.454016434534864, 3.136209181403036 ], [ 99.454170305588733, 3.136028958114308 ], [ 99.454154793053576, 3.135948778037491 ], [ 99.454111898228135, 3.13587220055265 ], [ 99.454004726670803, 3.135831555845627 ], [ 99.453914231096533, 3.135810052229194 ], [ 99.4538106533887, 3.135822065302663 ], [ 99.453578522806339, 3.13590953454169 ], [ 99.453396385299271, 3.13596945450389 ], [ 99.453290437023298, 3.136006601360071 ], [ 99.453238056353612, 3.136019788991005 ], [ 99.453155891540746, 3.13599110127245 ], [ 99.453040368750109, 3.135912161546179 ], [ 99.452990340733606, 3.135860720810117 ], [ 99.4529545828631, 3.135767384659589 ], [ 99.452879519943608, 3.135640555490416 ], [ 99.452758009846178, 3.135482628357035 ], [ 99.452699647491514, 3.135429994336417 ], [ 99.452643676791482, 3.135401295188786 ], [ 99.452576992033784, 3.135377388235963 ], [ 99.45246506864639, 3.135361878220798 ], [ 99.452296005097224, 3.135369132025712 ], [ 99.452117421500134, 3.135384768138379 ], [ 99.451988831675777, 3.135376446620154 ], [ 99.451854278566387, 3.135342993961784 ], [ 99.451754253379136, 3.135309526317527 ], [ 99.451594659824025, 3.135187520309058 ], [ 99.451423148608399, 3.135037992853069 ], [ 99.451324298364753, 3.134969817657962 ], [ 99.451124229632839, 3.134859797048469 ], [ 99.450892007223118, 3.134733035701635 ], [ 99.450684789376297, 3.134611050125359 ], [ 99.450393007660281, 3.134418489252877 ], [ 99.450178644193073, 3.134290523116364 ], [ 99.450021444586014, 3.134197239254155 ], [ 99.449940444581401, 3.134107513139855 ], [ 99.449826059227263, 3.133902907530564 ], [ 99.449798658557071, 3.13386342480298 ], [ 99.449710565494755, 3.133890989391381 ], [ 99.449492720165978, 3.133976056870756 ], [ 99.449340349223206, 3.134037160163956 ], [ 99.449193931265029, 3.134099457759221 ], [ 99.4489070406444, 3.134207294823181 ], [ 99.448654675814225, 3.13431032940971 ], [ 99.448653896571173, 3.134310666284728 ] ] ] ] } },
{ "type": "Feature", "properties": { "KEBUN": "1KDH", "AFDELING": "AFD04", "BLOK": "112" }, "geometry": { "type": "MultiPolygon", "coordinates": [ [ [ [ 99.450510425334471, 3.138322171449145 ], [ 99.450153454714993, 3.137965767633819 ], [ 99.450033609245764, 3.137809025480127 ], [ 99.449852472376065, 3.137423729761826 ], [ 99.449535430264859, 3.13662918181563 ], [ 99.44913015188267, 3.135523501054855 ], [ 99.448653896571173, 3.134310666284728 ], [ 99.448468975691171, 3.134390595315585 ], [ 99.448313032182199, 3.134452896899339 ], [ 99.448024953092954, 3.13456432401426 ], [ 99.447735680827236, 3.134672161814012 ], [ 99.447530924978494, 3.134739271808011 ], [ 99.447097618659399, 3.134914192439478 ], [ 99.446844061734126, 3.135014833372945 ], [ 99.446660738725853, 3.135087917555188 ], [ 99.446265527100635, 3.135253247358731 ], [ 99.446059584384258, 3.135329931794892 ], [ 99.445832215850118, 3.135419790217888 ], [ 99.445472709910149, 3.135555184102136 ], [ 99.4452310560103, 3.135649835160047 ], [ 99.444979879532383, 3.135749278689394 ], [ 99.444578710878105, 3.135907429142955 ], [ 99.444251343594033, 3.136024856527149 ], [ 99.443952560997857, 3.136168601357805 ], [ 99.443772819664673, 3.136265620410706 ], [ 99.443697834387663, 3.136320705565319 ], [ 99.443687131757969, 3.136350630506958 ], [ 99.443724078552776, 3.13644157280811 ], [ 99.443784832050738, 3.136518143217489 ], [ 99.443863458018868, 3.13662582327687 ], [ 99.443940888272763, 3.1367215349608 ], [ 99.444026647371928, 3.136805275114571 ], [ 99.444142719699286, 3.13691850475433 ], [ 99.444262765401291, 3.136993134640558 ], [ 99.444337086827531, 3.137058209822253 ], [ 99.444409509458737, 3.137138604701858 ], [ 99.444466678867371, 3.137186453094784 ], [ 99.44455241973337, 3.137224714188108 ], [ 99.444609602906141, 3.13730511555455 ], [ 99.44464393126259, 3.137397016975979 ], [ 99.444668725347441, 3.137465942768701 ], [ 99.444655426645738, 3.137552118920907 ], [ 99.444657358623047, 3.137615309776704 ], [ 99.444691660290545, 3.13764401862037 ], [ 99.44474500867058, 3.137666974629937 ], [ 99.44477931438945, 3.137705258568388 ], [ 99.444916592443192, 3.137986690126589 ], [ 99.444897576408707, 3.13806712402414 ], [ 99.444857605950702, 3.138147567779616 ], [ 99.444842402889208, 3.138233744745802 ], [ 99.444859571145514, 3.13828926918957 ], [ 99.444893871222632, 3.138314148525869 ], [ 99.444941501476777, 3.138329447064268 ], [ 99.444956754026052, 3.138358164035312 ], [ 99.444952977584109, 3.138436677124124 ], [ 99.444953011602834, 3.138517102880462 ], [ 99.444981613774658, 3.138582197532931 ], [ 99.445012144629942, 3.138704738338085 ], [ 99.445052206645158, 3.138840678757827 ], [ 99.445101790912531, 3.138968956108547 ], [ 99.445124707356172, 3.139102989557433 ], [ 99.445147609218708, 3.139202554824752 ], [ 99.445174319929563, 3.139300203260844 ], [ 99.445185797616773, 3.13941317800821 ], [ 99.445134399714632, 3.139499370457572 ], [ 99.445056330802274, 3.139581744814766 ], [ 99.444974486167084, 3.139746461751721 ], [ 99.444930718078524, 3.139857544924665 ], [ 99.444869800408497, 3.139955230832361 ], [ 99.44479171434206, 3.139999306595141 ], [ 99.444669810111336, 3.140031912587954 ], [ 99.444561256221775, 3.140104724845474 ], [ 99.444433649084118, 3.140167971036818 ], [ 99.444262230957563, 3.140238895821024 ], [ 99.444178423431467, 3.140267655093127 ], [ 99.444083170750218, 3.140258121556353 ], [ 99.443947899678108, 3.140217966392642 ], [ 99.443816450488043, 3.140204617871656 ], [ 99.443738348993449, 3.140212311082196 ], [ 99.443650765821957, 3.140319582504931 ], [ 99.443523194944007, 3.140468999967346 ], [ 99.443403237694454, 3.140605008670285 ], [ 99.443323258433097, 3.140675894343009 ], [ 99.443233748909449, 3.140733379472255 ], [ 99.443174724913362, 3.14080617140915 ], [ 99.443123333238319, 3.140907682683357 ], [ 99.443047163595523, 3.14097856671756 ], [ 99.442999539594766, 3.140980502201222 ], [ 99.442900443201069, 3.140892458708015 ], [ 99.442814711831574, 3.140875261107156 ], [ 99.44268900088079, 3.140917442708356 ], [ 99.442597567470045, 3.140930885310047 ], [ 99.442464220963132, 3.14093668673603 ], [ 99.442372791480949, 3.14096161962091 ], [ 99.442296639598112, 3.14107271649817 ], [ 99.442271936594253, 3.141220174897279 ], [ 99.442262438580414, 3.141283370632511 ], [ 99.442132942405209, 3.141385969029324 ], [ 99.441965328713692, 3.141445401561851 ], [ 99.44184722409409, 3.141456941141538 ], [ 99.441679574154463, 3.1414302040499 ], [ 99.441584318138311, 3.141413010395821 ], [ 99.441530998469389, 3.141460905835548 ], [ 99.441371022639061, 3.141562463140461 ], [ 99.441247195005019, 3.141554856685049 ], [ 99.441221746346812, 3.141776602063321 ], [ 99.441553057707182, 3.141691163053826 ], [ 99.44201502415514, 3.141562417621068 ], [ 99.442450672219096, 3.141429876313678 ], [ 99.442745903568536, 3.141331611314308 ], [ 99.443141152288717, 3.14124527250971 ], [ 99.443484017509419, 3.141170923870823 ], [ 99.444003054099142, 3.141000755271594 ], [ 99.444760188222091, 3.14077064301116 ], [ 99.445698254041474, 3.140444708100484 ], [ 99.446826767291071, 3.139999009185386 ], [ 99.447660047340463, 3.1396491817467 ], [ 99.447874319376155, 3.139558131572476 ], [ 99.448326645749546, 3.13930899972061 ], [ 99.448821842905474, 3.139078997596498 ], [ 99.449131361109934, 3.138983119477913 ], [ 99.449302790462568, 3.138939960286241 ], [ 99.44985034705779, 3.138647700639428 ], [ 99.450326735954576, 3.13842286719372 ], [ 99.450510425334471, 3.138322171449145 ] ] ] ] } },
{ "type": "Feature", "properties": { "KEBUN": "1KDH", "AFDELING": "AFD04", "BLOK": "82D" }, "geometry": { "type": "MultiPolygon", "coordinates": [ [ [ [ 99.450369920865256, 3.149257392143351 ], [ 99.450577094491095, 3.149269270149972 ], [ 99.45074855302795, 3.149288344949246 ], [ 99.451141487194732, 3.149355195266647 ], [ 99.451870202586605, 3.149479347049011 ], [ 99.45219404999763, 3.149474418398917 ], [ 99.452427386150859, 3.149414475987318 ], [ 99.4532368958657, 3.149150824049324 ], [ 99.453496407748773, 3.149050178577754 ], [ 99.454219036585044, 3.148796934212869 ], [ 99.454005842377654, 3.148236838846787 ], [ 99.453962286025885, 3.148253105872445 ], [ 99.453696577449222, 3.148342264756078 ], [ 99.453632534145044, 3.148366078482246 ], [ 99.453626818369386, 3.148368386094036 ], [ 99.453626774283279, 3.148368417776949 ], [ 99.453621745472518, 3.148342217855837 ], [ 99.453601060215234, 3.148288694527931 ], [ 99.453566509605494, 3.148222640264363 ], [ 99.453540281454281, 3.148142465803959 ], [ 99.45354621280319, 3.148093393607108 ], [ 99.453564044880508, 3.148029954484526 ], [ 99.453554500560372, 3.147984479707817 ], [ 99.453619723436276, 3.147928753946764 ], [ 99.453659224590524, 3.147867146368093 ], [ 99.453690156495924, 3.14781088283405 ], [ 99.453679402461191, 3.147723520298086 ], [ 99.453658647838878, 3.147665651842759 ], [ 99.453684113985332, 3.147605033780529 ], [ 99.453660256881776, 3.14750092147327 ], [ 99.453642373054322, 3.147444679273438 ], [ 99.453691056048299, 3.147406205666667 ], [ 99.453673270788769, 3.147309425815045 ], [ 99.453642278337327, 3.147225661873454 ], [ 99.453636231198445, 3.147009041749655 ], [ 99.453667124271306, 3.14686301722625 ], [ 99.453644458406885, 3.146760101279818 ], [ 99.453640849588794, 3.146675129389619 ], [ 99.453621750253376, 3.146561439910599 ], [ 99.453625309911999, 3.146532714904517 ], [ 99.453661005076569, 3.146477646180422 ], [ 99.453662144541283, 3.146359161221126 ], [ 99.453512295793757, 3.146436860508295 ], [ 99.451041897778396, 3.147408706206174 ], [ 99.448012371044697, 3.148600411023727 ], [ 99.447900795694778, 3.148610834919834 ], [ 99.447635987480012, 3.148578396213213 ], [ 99.447418808397074, 3.148557425387839 ], [ 99.447228290834175, 3.148515380350518 ], [ 99.447213069158067, 3.14855751407087 ], [ 99.447119999698188, 3.148798386268455 ], [ 99.447146223270749, 3.148830880896007 ], [ 99.447289189361967, 3.149043372992366 ], [ 99.447472151319076, 3.149236699431307 ], [ 99.447677970088392, 3.149420440870745 ], [ 99.447786615301752, 3.149562097050681 ], [ 99.447910491203388, 3.14968268215602 ], [ 99.447999567211951, 3.14974078542607 ], [ 99.448472236434625, 3.149653162326336 ], [ 99.449336551071497, 3.149470872424488 ], [ 99.450077041029786, 3.149288636473075 ], [ 99.450369920865256, 3.149257392143351 ] ] ], [ [ [ 99.454307007857508, 3.149028048433115 ], [ 99.453489383550647, 3.149325448195873 ], [ 99.452767967487375, 3.149560338443497 ], [ 99.452248910317536, 3.14968742752939 ], [ 99.452077470172554, 3.149709044394732 ], [ 99.451858391587351, 3.149701959432764 ], [ 99.451651014568881, 3.149677713962042 ], [ 99.451268805428128, 3.149633598222717 ], [ 99.45113305613549, 3.149591768962504 ], [ 99.450625825464044, 3.149534542493541 ], [ 99.450192428767807, 3.149510794739752 ], [ 99.4500674190312, 3.149525210711775 ], [ 99.449592405186579, 3.149630736352795 ], [ 99.448768578661046, 3.149829763567434 ], [ 99.448497139930339, 3.149883738145467 ], [ 99.448353078310419, 3.14989457149782 ], [ 99.448318275136373, 3.149948677131676 ], [ 99.448265518954514, 3.150053646897795 ], [ 99.448169791958193, 3.150197679247733 ], [ 99.448131752855929, 3.15034131303698 ], [ 99.448177548921976, 3.150519378765323 ], [ 99.448236665539952, 3.150662971472002 ], [ 99.448299615628642, 3.150862093350646 ], [ 99.448381639784472, 3.151116740521934 ], [ 99.448490305784318, 3.151306268420567 ], [ 99.448560843470347, 3.15142879167368 ], [ 99.44869423954826, 3.151535968835897 ], [ 99.448938142258555, 3.151681395784024 ], [ 99.449096310250525, 3.151803881036401 ], [ 99.449230302519794, 3.151930628713485 ], [ 99.449897932118489, 3.151683603276096 ], [ 99.450690753922615, 3.151369693726244 ], [ 99.451300590157572, 3.151143468482635 ], [ 99.451884128189391, 3.150909022732869 ], [ 99.452185312236509, 3.150805965579186 ], [ 99.452619816347095, 3.150635829078735 ], [ 99.453154317382527, 3.150428546172316 ], [ 99.453473350447808, 3.150303938748062 ], [ 99.454018564246923, 3.150089470350719 ], [ 99.454619951147222, 3.149850199829939 ], [ 99.454307007857508, 3.149028048433115 ] ] ] ] } },
{ "type": "Feature", "properties": { "KEBUN": "1KDH", "AFDELING": "AFD04", "BLOK": "101" }, "geometry": { "type": "MultiPolygon", "coordinates": [ [ [ [ 99.447228290834175, 3.148515380350518 ], [ 99.447158542570307, 3.148474552506616 ], [ 99.447085883005627, 3.148400381348545 ], [ 99.446982252887651, 3.148292713403853 ], [ 99.446881033251415, 3.148253261534034 ], [ 99.446586919430501, 3.148182776325697 ], [ 99.446440449471794, 3.148127786157255 ], [ 99.446253446762796, 3.147953131928677 ], [ 99.446097386520947, 3.14774375644405 ], [ 99.446018625965777, 3.147601767832011 ], [ 99.445841259090002, 3.147125033331645 ], [ 99.44545984082194, 3.146137107424157 ], [ 99.445232885747302, 3.145522521274323 ], [ 99.4446492974146, 3.143964039418128 ], [ 99.444317462169124, 3.143094815859477 ], [ 99.443953220413448, 3.142173902749472 ], [ 99.443776264873094, 3.141687898992374 ], [ 99.443676735287013, 3.14172736094567 ], [ 99.443021990461631, 3.141949050716546 ], [ 99.442474387531604, 3.142140774143066 ], [ 99.441807710042369, 3.14230262752275 ], [ 99.441142802575854, 3.142464479752531 ], [ 99.441177414770635, 3.143232341524054 ], [ 99.441204472921072, 3.144155314293557 ], [ 99.441240750753451, 3.144354448194882 ], [ 99.441273210977613, 3.144532521019363 ], [ 99.441313267223578, 3.144655057910581 ], [ 99.441402897141799, 3.144882893540183 ], [ 99.441475376667924, 3.145095416640985 ], [ 99.4415554755833, 3.145307937397767 ], [ 99.441664114720894, 3.145438104106269 ], [ 99.441810826053228, 3.145501233412797 ], [ 99.441993754976238, 3.145619879983263 ], [ 99.442150035364634, 3.145788324952065 ], [ 99.442336773336578, 3.145903139424863 ], [ 99.442494954266365, 3.146060094119636 ], [ 99.442687445973576, 3.146268736447516 ], [ 99.442864673172593, 3.146416108753845 ], [ 99.44295616605676, 3.146542453100202 ], [ 99.443009547323129, 3.146640090203062 ], [ 99.443158197249915, 3.146783645137869 ], [ 99.443289685306027, 3.146886993579857 ], [ 99.443388777507764, 3.146963547546398 ], [ 99.443543094827589, 3.146992205124768 ], [ 99.443729773933057, 3.146969146567221 ], [ 99.443878381144131, 3.14700929593033 ], [ 99.444126102426281, 3.147179616626541 ], [ 99.444370004366633, 3.147326959192233 ], [ 99.444602484537299, 3.147493456779221 ], [ 99.444842568714904, 3.147623566757276 ], [ 99.445183638446238, 3.147801507043946 ], [ 99.445467557696503, 3.147977555626146 ], [ 99.445539981360781, 3.148056035994557 ], [ 99.445675300630569, 3.148209170402136 ], [ 99.445837266017989, 3.148304845473145 ], [ 99.446124970832074, 3.148421530957805 ], [ 99.446393600928616, 3.148482692801707 ], [ 99.446654615752678, 3.148553431135457 ], [ 99.446873722086082, 3.148628018750951 ], [ 99.446999461515574, 3.148649028177121 ], [ 99.447119999698188, 3.148798386268455 ], [ 99.447213069158067, 3.14855751407087 ], [ 99.447228290834175, 3.148515380350518 ] ] ] ] } },
{ "type": "Feature", "properties": { "KEBUN": "1KDH", "AFDELING": "AFD04", "BLOK": "92A" }, "geometry": { "type": "MultiPolygon", "coordinates": [ [ [ [ 99.453358857553553, 3.146497223235071 ], [ 99.452054415746289, 3.143134717341577 ], [ 99.448900077288656, 3.144365458788486 ], [ 99.445778876663837, 3.145569800720424 ], [ 99.44531850069356, 3.145754364060425 ], [ 99.44545984082194, 3.146137107424157 ], [ 99.445841259090002, 3.147125033331645 ], [ 99.446018625965777, 3.147601767832011 ], [ 99.446097386520947, 3.14774375644405 ], [ 99.446253446762796, 3.147953131928677 ], [ 99.446440449471794, 3.148127786157255 ], [ 99.446586919430501, 3.148182776325697 ], [ 99.446881033251415, 3.148253261534034 ], [ 99.446982252887651, 3.148292713403853 ], [ 99.447085883005627, 3.148400381348545 ], [ 99.447158542570307, 3.148474552506616 ], [ 99.447228290834175, 3.148515380350518 ], [ 99.447418808397074, 3.148557425387839 ], [ 99.447635987480012, 3.148578396213213 ], [ 99.447900795694778, 3.148610834919834 ], [ 99.448012371044697, 3.148600411023727 ], [ 99.451041897778396, 3.147408706206174 ], [ 99.453358857553553, 3.146497223235071 ] ] ] ] } },
{ "type": "Feature", "properties": { "KEBUN": "1KDH", "AFDELING": "AFD04", "BLOK": "93" }, "geometry": { "type": "MultiPolygon", "coordinates": [ [ [ [ 99.454983905126809, 3.145855845758457 ], [ 99.455245410080735, 3.145764849285798 ], [ 99.455306160284579, 3.145830646841264 ], [ 99.455387199646111, 3.146007739521765 ], [ 99.455463350331527, 3.145985904356616 ], [ 99.45558240327685, 3.145876004645175 ], [ 99.455775211820693, 3.145710759804741 ], [ 99.456063285763392, 3.145581377869001 ], [ 99.456246607144323, 3.145504701218776 ], [ 99.456327549835919, 3.145459186731177 ], [ 99.456327522779347, 3.145396953224239 ], [ 99.456565613162368, 3.145320252464591 ], [ 99.456767988761598, 3.145253141537683 ], [ 99.457070353974515, 3.145133327251873 ], [ 99.457095585509293, 3.145113209743909 ], [ 99.457060619712834, 3.145038381347128 ], [ 99.457500408665069, 3.144865779301068 ], [ 99.45822802414574, 3.144580213687755 ], [ 99.458915407438866, 3.144310438398363 ], [ 99.459037246727547, 3.144286207144502 ], [ 99.459578647172307, 3.144077722533882 ], [ 99.460064435785597, 3.143891324597169 ], [ 99.460685588385914, 3.1436457450653 ], [ 99.460677658233834, 3.14362682736349 ], [ 99.461396993168123, 3.143354307895624 ], [ 99.461135854198957, 3.142902426567989 ], [ 99.460919947257239, 3.142520499871834 ], [ 99.460792670449834, 3.142249119471531 ], [ 99.460748345883687, 3.142173021584501 ], [ 99.460458093547274, 3.141673361631491 ], [ 99.460299387388972, 3.141407739732579 ], [ 99.460083495571666, 3.141058845149851 ], [ 99.460007702830737, 3.140898026565308 ], [ 99.459893230600045, 3.140503129575135 ], [ 99.459775943992938, 3.140204456838338 ], [ 99.459705867283162, 3.14004794465435 ], [ 99.459647711952542, 3.139979694453242 ], [ 99.45888665447184, 3.140275710808709 ], [ 99.458826121958325, 3.140299998175613 ], [ 99.458794497406103, 3.140312687523571 ], [ 99.458680756089763, 3.140358324250146 ], [ 99.458317916328696, 3.140503907959899 ], [ 99.457764271724741, 3.140480215809117 ], [ 99.457887558751509, 3.140830059161551 ], [ 99.456388512342244, 3.141419744790525 ], [ 99.45366150187057, 3.142507668643082 ], [ 99.452054415746289, 3.14313471734161 ], [ 99.453358857553553, 3.146497223235087 ], [ 99.453512295793772, 3.146436860508313 ], [ 99.453662144541283, 3.146359161221126 ], [ 99.45400617597727, 3.146227361576282 ], [ 99.45445811886178, 3.14606343482039 ], [ 99.454983905126809, 3.145855845758457 ] ] ] ] } },
{ "type": "Feature", "properties": { "KEBUN": "1KDH", "AFDELING": "AFD04", "BLOK": "102" }, "geometry": { "type": "MultiPolygon", "coordinates": [ [ [ [ 99.452165242796013, 3.143091474486988 ], [ 99.451845532751634, 3.142225797941251 ], [ 99.45185611615436, 3.141917015689293 ], [ 99.451809590967983, 3.141705199701446 ], [ 99.451452031665838, 3.140832878216794 ], [ 99.450706681554564, 3.138850351322692 ], [ 99.450450161971858, 3.1389837464869 ], [ 99.449896679014913, 3.139337045705105 ], [ 99.449670564766606, 3.139576506280553 ], [ 99.449111086881771, 3.139834062238642 ], [ 99.44862035148725, 3.139979372242796 ], [ 99.44834320789306, 3.13998997960418 ], [ 99.448105143804909, 3.140127715097913 ], [ 99.447700442810941, 3.140379221094221 ], [ 99.447337366204508, 3.140522994658847 ], [ 99.44703380839465, 3.140636822169786 ], [ 99.446652829851587, 3.140678874139987 ], [ 99.446384982181712, 3.140774734647364 ], [ 99.445819528903087, 3.14098441972902 ], [ 99.445438585628452, 3.141110247948271 ], [ 99.445004079202391, 3.14127200376993 ], [ 99.444777878128747, 3.141308005334126 ], [ 99.444069573315858, 3.141571606949063 ], [ 99.443776264873094, 3.141687898992374 ], [ 99.443953220413448, 3.142173902749472 ], [ 99.444317462169124, 3.143094815859477 ], [ 99.4446492974146, 3.143964039418128 ], [ 99.445232885747302, 3.145522521274323 ], [ 99.44531850069356, 3.145754364060425 ], [ 99.445778876663837, 3.145569800720424 ], [ 99.448900077288656, 3.144365458788486 ], [ 99.452165242796013, 3.143091474486988 ] ] ] ] } },
{ "type": "Feature", "properties": { "KEBUN": "1KDH", "AFDELING": "AFD04", "BLOK": "103A" }, "geometry": { "type": "MultiPolygon", "coordinates": [ [ [ [ 99.457887558751509, 3.140830059161551 ], [ 99.457764271724741, 3.140480215809117 ], [ 99.458317916328696, 3.140503907959899 ], [ 99.45888665447184, 3.140275710808709 ], [ 99.459647711952542, 3.139979694453242 ], [ 99.459705867283162, 3.14004794465435 ], [ 99.459739275964793, 3.140122560150712 ], [ 99.459935796139987, 3.140049833332841 ], [ 99.459916962240442, 3.139949356697408 ], [ 99.459869193126522, 3.139619058366783 ], [ 99.459832144537103, 3.139300722331597 ], [ 99.459776010239182, 3.138898618198432 ], [ 99.459721060934996, 3.138483348699074 ], [ 99.459672609411925, 3.138207717429245 ], [ 99.459663296432609, 3.138043113209051 ], [ 99.458974096968959, 3.138258048695211 ], [ 99.458831067158343, 3.138302654322344 ], [ 99.458639970682654, 3.138367531355791 ], [ 99.458327039390213, 3.138473772183868 ], [ 99.458161747049644, 3.138529889568589 ], [ 99.458072165697416, 3.138560302554481 ], [ 99.457628721584456, 3.138695139496117 ], [ 99.45646209063716, 3.139078631558757 ], [ 99.456304352716444, 3.139120589002447 ], [ 99.456264220165664, 3.139032760802795 ], [ 99.456208445326709, 3.138906401187582 ], [ 99.456194120031697, 3.138818801410823 ], [ 99.456092608156638, 3.138653685629115 ], [ 99.456021116891293, 3.138527333787062 ], [ 99.455978193380503, 3.13838517107774 ], [ 99.455952395335672, 3.138198479070721 ], [ 99.455945174684672, 3.138021833489537 ], [ 99.455952252182314, 3.137868159499181 ], [ 99.455943638735903, 3.137773374992336 ], [ 99.455902160360097, 3.137669988744708 ], [ 99.45583494373524, 3.137517783900453 ], [ 99.45576771683605, 3.137339727950296 ], [ 99.455716230392724, 3.137219111095687 ], [ 99.455651868798952, 3.137061160291322 ], [ 99.455598950722631, 3.136934800267563 ], [ 99.455541737605316, 3.136786899078492 ], [ 99.455504545328736, 3.136682074302417 ], [ 99.455398785358184, 3.136603130606359 ], [ 99.455278746832107, 3.136544300457308 ], [ 99.455170162694202, 3.136544347908579 ], [ 99.455005861419636, 3.136548727752052 ], [ 99.454900124800133, 3.136525795170299 ], [ 99.454740115456786, 3.136544535728055 ], [ 99.454288943085018, 3.136803877845014 ], [ 99.453711647440329, 3.137151205613849 ], [ 99.453011659569981, 3.137631777397919 ], [ 99.452198006541522, 3.138121446740886 ], [ 99.451664316185443, 3.138354893012051 ], [ 99.45133696995444, 3.138522589120138 ], [ 99.450706681554578, 3.138850351322692 ], [ 99.451452031665838, 3.14083287821681 ], [ 99.451809590967983, 3.141705199701446 ], [ 99.45185611615436, 3.141917015689293 ], [ 99.451845532751648, 3.142225797941251 ], [ 99.452165242796013, 3.143091474487004 ], [ 99.45366150187057, 3.142507668643082 ], [ 99.456388512342244, 3.141419744790525 ], [ 99.457887558751509, 3.140830059161551 ] ] ] ] } },
{ "type": "Feature", "properties": { "KEBUN": "1KDH", "AFDELING": "AFD04", "BLOK": "73A" }, "geometry": { "type": "MultiPolygon", "coordinates": [ [ [ [ 99.462006582469272, 3.150655224005892 ], [ 99.462097061485139, 3.15063603444893 ], [ 99.462530519901051, 3.150658873323045 ], [ 99.462374694216322, 3.150282999009301 ], [ 99.462026639816742, 3.149391529537136 ], [ 99.462040917750699, 3.14936998016434 ], [ 99.462681357440246, 3.149111184027388 ], [ 99.463157548947507, 3.148924573365728 ], [ 99.463187383122133, 3.148912881606932 ], [ 99.46320743978815, 3.148891093522807 ], [ 99.463381724359536, 3.148839313567177 ], [ 99.46351664717514, 3.150322145297736 ], [ 99.463876966962516, 3.150199067416113 ], [ 99.463873646350208, 3.150116543610065 ], [ 99.463889299783077, 3.149975791005938 ], [ 99.463884968237082, 3.149872388674298 ], [ 99.463852060296446, 3.149767562497922 ], [ 99.463880609098467, 3.149708667197579 ], [ 99.463900540312508, 3.149547806294672 ], [ 99.463879072124143, 3.149463082292328 ], [ 99.463886181703586, 3.149386961629138 ], [ 99.463968940714437, 3.149142774748869 ], [ 99.463961770759155, 3.149082458797982 ], [ 99.463943175688996, 3.149035073941532 ], [ 99.463931724145013, 3.148986249267754 ], [ 99.46394456674912, 3.148948903094764 ], [ 99.463950248669249, 3.148874218787986 ], [ 99.46391593281156, 3.148815351595743 ], [ 99.463844474121515, 3.148766553745999 ], [ 99.463798719446416, 3.148687584370381 ], [ 99.463800119150847, 3.148622955622129 ], [ 99.463835827973739, 3.148599960934674 ], [ 99.463917249266686, 3.148562584107286 ], [ 99.46397438494219, 3.148530962814286 ], [ 99.463815619778487, 3.148134649834298 ], [ 99.463725465773635, 3.147811551307329 ], [ 99.463640130284588, 3.147447376579632 ], [ 99.463635284541326, 3.147426696989831 ], [ 99.463532336571973, 3.147248657815318 ], [ 99.463256380072238, 3.146774843784843 ], [ 99.463129124212628, 3.146553729369252 ], [ 99.46312274987315, 3.146542202136712 ], [ 99.462433439514385, 3.146813362551387 ], [ 99.461370803004627, 3.147231379709496 ], [ 99.460253289897835, 3.147667275800319 ], [ 99.460315235500317, 3.147742886379914 ], [ 99.460408633111584, 3.147865398531768 ], [ 99.460311543847112, 3.148013846249224 ], [ 99.460244905684505, 3.148096216583605 ], [ 99.460410977767324, 3.14819174171654 ], [ 99.460984461389302, 3.148375317949693 ], [ 99.461163545811132, 3.148409706490139 ], [ 99.461455014236961, 3.148419151100855 ], [ 99.461677893782038, 3.148407562606063 ], [ 99.461784519732618, 3.148286876813479 ], [ 99.46199130271286, 3.148223951519255 ], [ 99.462382946517167, 3.148063404557098 ], [ 99.46287612557326, 3.147856068486742 ], [ 99.462873518158602, 3.148183417125612 ], [ 99.462516288843631, 3.148318565574524 ], [ 99.461956314314364, 3.148529932546456 ], [ 99.461666321646547, 3.148626284593345 ], [ 99.461423451675032, 3.148665169681564 ], [ 99.461200567279647, 3.148663833045811 ], [ 99.461131995238048, 3.148681097571678 ], [ 99.461071989331217, 3.148683996577218 ], [ 99.46098625316742, 3.148659619308246 ], [ 99.460766183960402, 3.148562057414522 ], [ 99.460163140447733, 3.148303813275921 ], [ 99.459497262964163, 3.147997904816701 ], [ 99.459059477451973, 3.148170364922409 ], [ 99.458940979308593, 3.148233442411802 ], [ 99.458995768030178, 3.148280093980373 ], [ 99.459063649144667, 3.148314771809767 ], [ 99.459114895138995, 3.14842844596833 ], [ 99.459197076267372, 3.148491840888204 ], [ 99.459251872876351, 3.148556444804192 ], [ 99.459341275406274, 3.148798160595665 ], [ 99.459391346498236, 3.148947739987444 ], [ 99.459478285216733, 3.148999164826029 ], [ 99.459559242292258, 3.148988357009578 ], [ 99.459585451500772, 3.149024250135751 ], [ 99.459590222146957, 3.149042200389967 ], [ 99.459640234896042, 3.149056539948836 ], [ 99.45971048449745, 3.149063689230449 ], [ 99.459779543930296, 3.149072036823993 ], [ 99.459820009607526, 3.149037311042948 ], [ 99.459872395346423, 3.149032500287197 ], [ 99.459911707601066, 3.149082749308078 ], [ 99.459943891821453, 3.149167708430084 ], [ 99.459971310120267, 3.149245489259401 ], [ 99.460009443622766, 3.149320871566893 ], [ 99.460034485269787, 3.149409424504569 ], [ 99.459969029032479, 3.149474081683783 ], [ 99.459895226747577, 3.149511215115584 ], [ 99.459838072806804, 3.149501666277115 ], [ 99.459764254766512, 3.149502895878755 ], [ 99.4596511512257, 3.149514913940281 ], [ 99.459568988350171, 3.149493407319085 ], [ 99.459530868885111, 3.149447945296383 ], [ 99.45947130051097, 3.149362998286445 ], [ 99.459349825405809, 3.149291243510624 ], [ 99.459241464206642, 3.149256583629995 ], [ 99.459129545230638, 3.149256633163315 ], [ 99.459048588649566, 3.149268637834541 ], [ 99.458983125537472, 3.149317735458791 ], [ 99.458964111480284, 3.1494003244049 ], [ 99.45898794438574, 3.149445792773078 ], [ 99.459037961491688, 3.149472100301487 ], [ 99.459120123312275, 3.149491213197316 ], [ 99.459210617524533, 3.149506730838745 ], [ 99.459373738042444, 3.149518627470289 ], [ 99.459441622023732, 3.149561682548299 ], [ 99.45945237672025, 3.149651438717982 ], [ 99.459442865700822, 3.149682560126051 ], [ 99.459336917988793, 3.149723298413851 ], [ 99.459259540952019, 3.149754449869502 ], [ 99.459169051960075, 3.149750899272552 ], [ 99.459052367905002, 3.149743769605209 ], [ 99.458939265367633, 3.149758182268112 ], [ 99.458913089692615, 3.149798885220756 ], [ 99.458917878149549, 3.149857526843486 ], [ 99.458900054254272, 3.149938917473599 ], [ 99.458827463019375, 3.150022727005646 ], [ 99.458760833256179, 3.150126879131697 ], [ 99.45875371041457, 3.150173558079685 ], [ 99.458723971018287, 3.150233410955367 ], [ 99.458718044256955, 3.15029445108873 ], [ 99.458758534640623, 3.150315976203708 ], [ 99.458785903647296, 3.150281256244575 ], [ 99.45884898019257, 3.150220190830395 ], [ 99.458941820745821, 3.150155522493989 ], [ 99.45899656764766, 3.150106428702699 ], [ 99.459070388360544, 3.150111183572478 ], [ 99.459147755467626, 3.150057292223415 ], [ 99.45930726045404, 3.1499698544409 ], [ 99.459433448584079, 3.149927910303042 ], [ 99.459577495328176, 3.149885958239226 ], [ 99.45969059103686, 3.14985598781651 ], [ 99.459806073377479, 3.149837984267254 ], [ 99.459837040148102, 3.149861906425844 ], [ 99.459898955839066, 3.149869060285467 ], [ 99.460012062562114, 3.149864222593966 ], [ 99.460157328180387, 3.149884504298722 ], [ 99.460295448205883, 3.149903592268476 ], [ 99.460428807405066, 3.149925075196907 ], [ 99.460521676212593, 3.149925033970685 ], [ 99.460593123928973, 3.149948939035576 ], [ 99.460659799399011, 3.149951302291664 ], [ 99.460774090344444, 3.149929709415591 ], [ 99.460803852760193, 3.149922514886997 ], [ 99.460872922247518, 3.149953601390934 ], [ 99.460903903252017, 3.150009837580885 ], [ 99.460928920258112, 3.150042140538015 ], [ 99.461074174470454, 3.150038486231901 ], [ 99.461203964083609, 3.150063561295993 ], [ 99.461270653779096, 3.150098239481833 ], [ 99.461323053249941, 3.15012454582725 ], [ 99.461394566853713, 3.150298051410087 ], [ 99.461430334545668, 3.150410535399836 ], [ 99.461272036222454, 3.150533877680478 ], [ 99.461193480100462, 3.150591359454233 ], [ 99.461272142117124, 3.150774436939165 ], [ 99.461343642071881, 3.15091682533749 ], [ 99.461330576407107, 3.150987443714953 ], [ 99.46128060991856, 3.151078422830502 ], [ 99.461387756858642, 3.151332894492339 ], [ 99.461882808876311, 3.150770172802087 ], [ 99.462006582469272, 3.150655224005892 ] ] ] ] } },
{ "type": "Feature", "properties": { "KEBUN": "1KDH", "AFDELING": "AFD07", "BLOK": "137" }, "geometry": { "type": "MultiPolygon", "coordinates": [ [ [ [ 99.481057491994235, 3.077944758817138 ], [ 99.473827736791122, 3.077894519188929 ], [ 99.473827589085559, 3.078505395085368 ], [ 99.473827319436225, 3.079294335336217 ], [ 99.473826970564204, 3.080313057422972 ], [ 99.473826534631485, 3.081588379496613 ], [ 99.47422751390333, 3.08158821197593 ], [ 99.474802785562247, 3.08158986969684 ], [ 99.475166611157135, 3.081580131629057 ], [ 99.476082858400147, 3.08159120994489 ], [ 99.47700291994262, 3.081613456661003 ], [ 99.477940103253971, 3.081586544841563 ], [ 99.478751578912821, 3.081590008200894 ], [ 99.479020174875586, 3.081612547139164 ], [ 99.479271598266948, 3.08156870973887 ], [ 99.479418244210336, 3.081505451998849 ], [ 99.479563015010811, 3.081507300815094 ], [ 99.479896375929812, 3.081526299198071 ], [ 99.480300229073507, 3.081573988919547 ], [ 99.480843142727295, 3.081633104770612 ], [ 99.48107170141283, 3.081663638746773 ], [ 99.481071791446396, 3.081611618187847 ], [ 99.481063819213404, 3.077944297280247 ], [ 99.481057491994235, 3.077944758817138 ] ] ], [ [ [ 99.478163541093267, 3.099404584380685 ], [ 99.478138901443884, 3.099402826016207 ], [ 99.47804748705893, 3.099448824879713 ], [ 99.477990359038387, 3.09949289390094 ], [ 99.477952674646716, 3.099449132037911 ], [ 99.477975039401116, 3.099312900714396 ], [ 99.47798444673171, 3.099052470858287 ], [ 99.477931078474541, 3.098981643753302 ], [ 99.477830105538814, 3.098952966143891 ], [ 99.477677739070074, 3.099010481947048 ], [ 99.477617971573267, 3.099088848310049 ], [ 99.477553219470067, 3.09914564499258 ], [ 99.477567351834281, 3.099226915350074 ], [ 99.477599870684543, 3.099337364853359 ], [ 99.477639842368433, 3.09945858473227 ], [ 99.477639901615831, 3.099590712247585 ], [ 99.477634260773854, 3.099755396111151 ], [ 99.477634334625321, 3.09992007738469 ], [ 99.477628694647095, 3.100086675536002 ], [ 99.477666802601149, 3.100109636967443 ], [ 99.477784918008226, 3.100134477321896 ], [ 99.477882059183713, 3.100115284058149 ], [ 99.478059197485607, 3.100074990993522 ], [ 99.478183000888933, 3.100042381065405 ], [ 99.478268700622095, 3.099996384776949 ], [ 99.478253432509931, 3.099931285989777 ], [ 99.478175132550561, 3.09948898061599 ], [ 99.478163541093267, 3.099404584380685 ] ] ] ] } }
]
}
